{
"type": "FeatureCollection",
"name": "candidates_natural_all",
"crs": { "type": "name", "properties": { "name": "urn:ogc:def:crs:OGC:1.3:CRS84" } },
"features": [
{ "type": "Feature", "properties": { "type": "lake-new", "rank": 1, "lake_id": 1357337, "lake_elevation_m": 649.5, "new_site_elevation_m": 1137.1, "head_m": 487.6, "distance_m": 1523.1, "direction": "higher", "volume_million_m3": 6.814, "basin_volume_million_m3": 6.814, "empirical_volume_million_m3": 5.34, "lake_volume_million_m3": 17.5, "limited_by_existing_lake": false, "surface_area_km2": 0.2724, "storage_mwh": 7696.4, "estimated_mw": 962.1, "score": 962.0521, "implied_flow_m3_s": 236.6, "flow_limited": false, "basin_bounded": true, "dam_start_lon": 23.92513, "dam_start_lat": 45.701394, "dam_end_lon": 23.921371, "dam_end_lat": 45.697508 }, "geometry": { "type": "LineString", "coordinates": [ [ 23.916063608557703, 45.712179299625362 ], [ 23.923250399791272, 45.699451078680738 ] ] } },
{ "type": "Feature", "properties": { "type": "lake-new", "rank": 2, "lake_id": 1358492, "lake_elevation_m": 614.5, "new_site_elevation_m": 1144.6, "head_m": 530.1, "distance_m": 1992.8, "direction": "higher", "volume_million_m3": 5.987, "basin_volume_million_m3": 5.987, "empirical_volume_million_m3": 3.287, "lake_volume_million_m3": 96.0, "limited_by_existing_lake": false, "surface_area_km2": 0.1631, "storage_mwh": 7352.0, "estimated_mw": 919.0, "score": 919.0052, "implied_flow_m3_s": 207.9, "flow_limited": false, "basin_bounded": true, "dam_start_lon": 22.496072, "dam_start_lat": 45.44046, "dam_end_lon": 22.490937, "dam_end_lat": 45.440877 }, "geometry": { "type": "LineString", "coordinates": [ [ 22.491185586925496, 45.42284128400388 ], [ 22.493504571100107, 45.440668618614808 ] ] } },
{ "type": "Feature", "properties": { "type": "lake-new", "rank": 3, "lake_id": 169296, "lake_elevation_m": 846.0, "new_site_elevation_m": 1206.1, "head_m": 360.1, "distance_m": 1568.4, "direction": "higher", "volume_million_m3": 11.272, "basin_volume_million_m3": 11.272, "empirical_volume_million_m3": 6.595, "lake_volume_million_m3": 112.0, "limited_by_existing_lake": false, "surface_area_km2": 0.3405, "storage_mwh": 9401.2, "estimated_mw": 750.6, "score": 750.6258, "implied_flow_m3_s": 391.4, "flow_limited": true, "basin_bounded": true, "dam_start_lon": 22.735537, "dam_start_lat": 46.77344, "dam_end_lon": 22.729519, "dam_end_lat": 46.776679 }, "geometry": { "type": "LineString", "coordinates": [ [ 22.711955572227023, 46.775009927157697 ], [ 22.732527893730637, 46.775059483990852 ] ] } },
{ "type": "Feature", "properties": { "type": "lake-new", "rank": 4, "lake_id": 1352457, "lake_elevation_m": 551.8, "new_site_elevation_m": 890.2, "head_m": 338.4, "distance_m": 1885.2, "direction": "higher", "volume_million_m3": 8.68, "basin_volume_million_m3": 18.703, "empirical_volume_million_m3": 12.04, "lake_volume_million_m3": 8.68, "limited_by_existing_lake": true, "surface_area_km2": 0.6434, "storage_mwh": 6803.5, "estimated_mw": 705.4, "score": 705.4347, "implied_flow_m3_s": 301.4, "flow_limited": true, "basin_bounded": true, "dam_start_lon": 22.548589, "dam_start_lat": 46.814688, "dam_end_lon": 22.556018, "dam_end_lat": 46.809611 }, "geometry": { "type": "LineString", "coordinates": [ [ 22.570910801990383, 46.800988761122888 ], [ 22.552303792652587, 46.812149429067148 ] ] } },
{ "type": "Feature", "properties": { "type": "lake-new", "rank": 5, "lake_id": 1357845, "lake_elevation_m": 740.0, "new_site_elevation_m": 1059.6, "head_m": 319.6, "distance_m": 1762.7, "direction": "higher", "volume_million_m3": 12.703, "basin_volume_million_m3": 12.703, "empirical_volume_million_m3": 7.599, "lake_volume_million_m3": 18.3, "limited_by_existing_lake": false, "surface_area_km2": 0.3955, "storage_mwh": 9403.7, "estimated_mw": 666.3, "score": 666.2624, "implied_flow_m3_s": 441.1, "flow_limited": true, "basin_bounded": true, "dam_start_lon": 25.785093, "dam_start_lat": 45.586504, "dam_end_lon": 25.793139, "dam_end_lat": 45.58605 }, "geometry": { "type": "LineString", "coordinates": [ [ 25.769923167433422, 45.577893783567596 ], [ 25.789116006360953, 45.586276673734083 ] ] } },
{ "type": "Feature", "properties": { "type": "lake-new", "rank": 6, "lake_id": 170958, "lake_elevation_m": 683.0, "new_site_elevation_m": 996.9, "head_m": 313.9, "distance_m": 1775.1, "direction": "higher", "volume_million_m3": 8.936, "basin_volume_million_m3": 8.936, "empirical_volume_million_m3": 4.485, "lake_volume_million_m3": 124.0, "limited_by_existing_lake": false, "surface_area_km2": 0.2265, "storage_mwh": 6497.7, "estimated_mw": 654.4, "score": 654.4255, "implied_flow_m3_s": 310.3, "flow_limited": true, "basin_bounded": true, "dam_start_lon": 22.742855, "dam_start_lat": 45.187839, "dam_end_lon": 22.738271, "dam_end_lat": 45.18504 }, "geometry": { "type": "LineString", "coordinates": [ [ 22.74257469795791, 45.170556709902733 ], [ 22.740562870132226, 45.186439600069221 ] ] } },
{ "type": "Feature", "properties": { "type": "lake-new", "rank": 7, "lake_id": 169355, "lake_elevation_m": 515.0, "new_site_elevation_m": 787.2, "head_m": 272.2, "distance_m": 1539.0, "direction": "higher", "volume_million_m3": 6.874, "basin_volume_million_m3": 6.874, "empirical_volume_million_m3": 4.589, "lake_volume_million_m3": 74.0, "limited_by_existing_lake": false, "surface_area_km2": 0.232, "storage_mwh": 4334.9, "estimated_mw": 541.9, "score": 541.8655, "implied_flow_m3_s": 238.7, "flow_limited": false, "basin_bounded": true, "dam_start_lon": 23.292831, "dam_start_lat": 46.715009, "dam_end_lon": 23.298559, "dam_end_lat": 46.71319 }, "geometry": { "type": "LineString", "coordinates": [ [ 23.278707869648212, 46.721549912777185 ], [ 23.295695085403725, 46.714099469610339 ] ] } },
{ "type": "Feature", "properties": { "type": "lake-new", "rank": 8, "lake_id": 170733, "lake_elevation_m": 798.0, "new_site_elevation_m": 1043.2, "head_m": 245.2, "distance_m": 1972.1, "direction": "higher", "volume_million_m3": 9.783, "basin_volume_million_m3": 9.783, "empirical_volume_million_m3": 6.851, "lake_volume_million_m3": 469.0, "limited_by_existing_lake": false, "surface_area_km2": 0.3545, "storage_mwh": 5556.3, "estimated_mw": 511.1, "score": 511.1441, "implied_flow_m3_s": 339.7, "flow_limited": true, "basin_bounded": true, "dam_start_lon": 24.604909, "dam_start_lat": 45.381625, "dam_end_lon": 24.609, "dam_end_lat": 45.386136 }, "geometry": { "type": "LineString", "coordinates": [ [ 24.624901160015753, 45.396330999546635 ], [ 24.606954377986931, 45.383880556379786 ] ] } },
{ "type": "Feature", "properties": { "type": "lake-new", "rank": 9, "lake_id": 1352799, "lake_elevation_m": 440.5, "new_site_elevation_m": 683.8, "head_m": 243.3, "distance_m": 1977.8, "direction": "higher", "volume_million_m3": 6.574, "basin_volume_million_m3": 6.574, "empirical_volume_million_m3": 4.624, "lake_volume_million_m3": 7.3, "limited_by_existing_lake": false, "surface_area_km2": 0.234, "storage_mwh": 3704.5, "estimated_mw": 463.1, "score": 463.0572, "implied_flow_m3_s": 228.3, "flow_limited": false, "basin_bounded": true, "dam_start_lon": 23.32791, "dam_start_lat": 46.715758, "dam_end_lon": 23.3341, "dam_end_lat": 46.714819 }, "geometry": { "type": "LineString", "coordinates": [ [ 23.329300932170735, 46.733016597438585 ], [ 23.331004798502153, 46.715288376493959 ] ] } },
{ "type": "Feature", "properties": { "type": "lake-new", "rank": 10, "lake_id": 1354000, "lake_elevation_m": 616.6, "new_site_elevation_m": 838.1, "head_m": 221.5, "distance_m": 1852.3, "direction": "higher", "volume_million_m3": 7.637, "basin_volume_million_m3": 7.637, "empirical_volume_million_m3": 7.687, "lake_volume_million_m3": 44.0, "limited_by_existing_lake": false, "surface_area_km2": 0.4004, "storage_mwh": 3918.1, "estimated_mw": 461.7, "score": 461.7364, "implied_flow_m3_s": 265.2, "flow_limited": true, "basin_bounded": false, "dam_start_lon": 25.384439, "dam_start_lat": 46.471273, "dam_end_lon": 25.384598, "dam_end_lat": 46.46559 }, "geometry": { "type": "LineString", "coordinates": [ [ 25.408521325820104, 46.470326117193331 ], [ 25.384518646737135, 46.468431229582038 ] ] } },
{ "type": "Feature", "properties": { "type": "lake-new", "rank": 11, "lake_id": 1352046, "lake_elevation_m": 364.0, "new_site_elevation_m": 733.9, "head_m": 369.9, "distance_m": 1839.3, "direction": "higher", "volume_million_m3": 4.174, "basin_volume_million_m3": 4.174, "empirical_volume_million_m3": 2.399, "lake_volume_million_m3": 4.98, "limited_by_existing_lake": false, "surface_area_km2": 0.1169, "storage_mwh": 3576.0, "estimated_mw": 447.0, "score": 447.0044, "implied_flow_m3_s": 144.9, "flow_limited": false, "basin_bounded": true, "dam_start_lon": 26.205807, "dam_start_lat": 46.940825, "dam_end_lon": 26.201357, "dam_end_lat": 46.940384 }, "geometry": { "type": "LineString", "coordinates": [ [ 26.201137962798519, 46.924165957566558 ], [ 26.20358177754165, 46.940604403288596 ] ] } },
{ "type": "Feature", "properties": { "type": "lake-new", "rank": 12, "lake_id": 170630, "lake_elevation_m": 551.0, "new_site_elevation_m": 763.8, "head_m": 212.8, "distance_m": 1534.2, "direction": "higher", "volume_million_m3": 8.694, "basin_volume_million_m3": 8.694, "empirical_volume_million_m3": 5.768, "lake_volume_million_m3": 155.0, "limited_by_existing_lake": false, "surface_area_km2": 0.2955, "storage_mwh": 4285.5, "estimated_mw": 443.6, "score": 443.6311, "implied_flow_m3_s": 301.9, "flow_limited": true, "basin_bounded": true, "dam_start_lon": 26.217268, "dam_start_lat": 45.503914, "dam_end_lon": 26.212363, "dam_end_lat": 45.500445 }, "geometry": { "type": "LineString", "coordinates": [ [ 26.234477434843079, 45.502407629998622 ], [ 26.214815822963669, 45.502179409053994 ] ] } },
{ "type": "Feature", "properties": { "type": "lake-new", "rank": 13, "lake_id": 169407, "lake_elevation_m": 987.5, "new_site_elevation_m": 1194.5, "head_m": 207.0, "distance_m": 1338.5, "direction": "higher", "volume_million_m3": 15.804, "basin_volume_million_m3": 15.804, "empirical_volume_million_m3": 7.769, "lake_volume_million_m3": 225.0, "limited_by_existing_lake": false, "surface_area_km2": 0.4049, "storage_mwh": 7577.3, "estimated_mw": 431.5, "score": 431.5153, "implied_flow_m3_s": 548.7, "flow_limited": true, "basin_bounded": true, "dam_start_lon": 23.009106, "dam_start_lat": 46.64418, "dam_end_lon": 23.009936, "dam_end_lat": 46.649868 }, "geometry": { "type": "LineString", "coordinates": [ [ 23.005003120220021, 46.658641287422235 ], [ 23.009520842458539, 46.647024177588719 ] ] } },
{ "type": "Feature", "properties": { "type": "lake-new", "rank": 14, "lake_id": 170453, "lake_elevation_m": 295.0, "new_site_elevation_m": 492.3, "head_m": 197.3, "distance_m": 1858.5, "direction": "higher", "volume_million_m3": 21.262, "basin_volume_million_m3": 21.262, "empirical_volume_million_m3": 9.669, "lake_volume_million_m3": 43.0, "limited_by_existing_lake": false, "surface_area_km2": 0.5103, "storage_mwh": 9715.9, "estimated_mw": 411.3, "score": 411.2637, "implied_flow_m3_s": 738.3, "flow_limited": true, "basin_bounded": true, "dam_start_lon": 22.852188, "dam_start_lat": 45.708483, "dam_end_lon": 22.845163, "dam_end_lat": 45.704348 }, "geometry": { "type": "LineString", "coordinates": [ [ 22.859812693094884, 45.691643603944051 ], [ 22.84867560001106, 45.706415382999424 ] ] } },
{ "type": "Feature", "properties": { "type": "lake-new", "rank": 15, "lake_id": 170761, "lake_elevation_m": 309.5, "new_site_elevation_m": 505.6, "head_m": 196.1, "distance_m": 1799.8, "direction": "higher", "volume_million_m3": 9.348, "basin_volume_million_m3": 9.348, "empirical_volume_million_m3": 6.142, "lake_volume_million_m3": 14.2, "limited_by_existing_lake": false, "surface_area_km2": 0.3158, "storage_mwh": 4245.8, "estimated_mw": 408.8, "score": 408.7824, "implied_flow_m3_s": 324.6, "flow_limited": true, "basin_bounded": true, "dam_start_lon": 24.265901, "dam_start_lat": 45.365466, "dam_end_lon": 24.262145, "dam_end_lat": 45.361163 }, "geometry": { "type": "LineString", "coordinates": [ [ 24.279449441163909, 45.351320804026166 ], [ 24.26402301453178, 45.363314805303766 ] ] } },
{ "type": "Feature", "properties": { "type": "lake-new", "rank": 16, "lake_id": 170671, "lake_elevation_m": 1263.5, "new_site_elevation_m": 1454.2, "head_m": 190.7, "distance_m": 1779.6, "direction": "higher", "volume_million_m3": 10.049, "basin_volume_million_m3": 10.049, "empirical_volume_million_m3": 5.378, "lake_volume_million_m3": 340.0, "limited_by_existing_lake": false, "surface_area_km2": 0.2744, "storage_mwh": 4439.8, "estimated_mw": 397.6, "score": 397.6147, "implied_flow_m3_s": 348.9, "flow_limited": true, "basin_bounded": true, "dam_start_lon": 23.735783, "dam_start_lat": 45.447941, "dam_end_lon": 23.729618, "dam_end_lat": 45.446089 }, "geometry": { "type": "LineString", "coordinates": [ [ 23.730107658077063, 45.431131666273771 ], [ 23.732700660290359, 45.447014556440259 ] ] } },
{ "type": "Feature", "properties": { "type": "lake-new", "rank": 17, "lake_id": 169740, "lake_elevation_m": 499.0, "new_site_elevation_m": 687.7, "head_m": 188.7, "distance_m": 1791.4, "direction": "higher", "volume_million_m3": 10.261, "basin_volume_million_m3": 10.261, "empirical_volume_million_m3": 6.041, "lake_volume_million_m3": 90.0, "limited_by_existing_lake": false, "surface_area_km2": 0.3103, "storage_mwh": 4484.5, "estimated_mw": 393.3, "score": 393.337, "implied_flow_m3_s": 356.3, "flow_limited": true, "basin_bounded": true, "dam_start_lon": 26.357352, "dam_start_lat": 46.315765, "dam_end_lon": 26.351057, "dam_end_lat": 46.313285 }, "geometry": { "type": "LineString", "coordinates": [ [ 26.366750515641296, 46.328086201236779 ], [ 26.354204639727833, 46.314524646958823 ] ] } },
{ "type": "Feature", "properties": { "type": "lake-new", "rank": 18, "lake_id": 1358935, "lake_elevation_m": 595.2, "new_site_elevation_m": 783.4, "head_m": 188.2, "distance_m": 1937.7, "direction": "higher", "volume_million_m3": 7.226, "basin_volume_million_m3": 7.226, "empirical_volume_million_m3": 6.255, "lake_volume_million_m3": 60.0, "limited_by_existing_lake": false, "surface_area_km2": 0.322, "storage_mwh": 3149.5, "estimated_mw": 392.3, "score": 392.2882, "implied_flow_m3_s": 250.9, "flow_limited": true, "basin_bounded": false, "dam_start_lon": 26.002759, "dam_start_lat": 45.341377, "dam_end_lon": 26.007258, "dam_end_lat": 45.345374 }, "geometry": { "type": "LineString", "coordinates": [ [ 25.983760353912356, 45.334437246845269 ], [ 26.005008216944923, 45.343375692567314 ] ] } },
{ "type": "Feature", "properties": { "type": "lake-new", "rank": 19, "lake_id": 1293, "lake_elevation_m": 566.2, "new_site_elevation_m": 389.2, "head_m": 177.0, "distance_m": 1737.1, "direction": "lower", "volume_million_m3": 7.314, "basin_volume_million_m3": 7.314, "empirical_volume_million_m3": 5.603, "lake_volume_million_m3": 2550.0, "limited_by_existing_lake": false, "surface_area_km2": 0.2866, "storage_mwh": 2999.3, "estimated_mw": 369.0, "score": 369.045, "implied_flow_m3_s": 254.0, "flow_limited": true, "basin_bounded": true, "dam_start_lon": 22.190202, "dam_start_lat": 44.591582, "dam_end_lon": 22.185251, "dam_end_lat": 44.594853 }, "geometry": { "type": "LineString", "coordinates": [ [ 22.172266376427853, 44.604278864403724 ], [ 22.18772642549224, 44.593217310125766 ] ] } },
{ "type": "Feature", "properties": { "type": "lake-new", "rank": 20, "lake_id": 1359260, "lake_elevation_m": 632.1, "new_site_elevation_m": 807.6, "head_m": 175.5, "distance_m": 1640.7, "direction": "higher", "volume_million_m3": 8.955, "basin_volume_million_m3": 8.955, "empirical_volume_million_m3": 5.643, "lake_volume_million_m3": 53.7, "limited_by_existing_lake": false, "surface_area_km2": 0.2888, "storage_mwh": 3640.9, "estimated_mw": 365.9, "score": 365.8989, "implied_flow_m3_s": 311.0, "flow_limited": true, "basin_bounded": true, "dam_start_lon": 25.749188, "dam_start_lat": 45.249876, "dam_end_lon": 25.755876, "dam_end_lat": 45.250943 }, "geometry": { "type": "LineString", "coordinates": [ [ 25.734026949481585, 45.25730442956818 ], [ 25.752531774624021, 45.250409541956884 ] ] } },
{ "type": "Feature", "properties": { "type": "lake-new", "rank": 21, "lake_id": 170205, "lake_elevation_m": 74.0, "new_site_elevation_m": 238.0, "head_m": 164.0, "distance_m": 1228.3, "direction": "higher", "volume_million_m3": 16.313, "basin_volume_million_m3": 16.313, "empirical_volume_million_m3": 10.642, "lake_volume_million_m3": 61.82, "limited_by_existing_lake": false, "surface_area_km2": 0.5647, "storage_mwh": 6195.5, "estimated_mw": 341.8, "score": 341.8115, "implied_flow_m3_s": 566.4, "flow_limited": true, "basin_bounded": false, "dam_start_lon": 27.251142, "dam_start_lat": 45.992106, "dam_end_lon": 27.248705, "dam_end_lat": 45.985571 }, "geometry": { "type": "LineString", "coordinates": [ [ 27.234807908646772, 45.985455569455752 ], [ 27.249923532363884, 45.988838459622237 ] ] } },
{ "type": "Feature", "properties": { "type": "lake-new", "rank": 22, "lake_id": 1348998, "lake_elevation_m": 367.5, "new_site_elevation_m": 569.7, "head_m": 202.2, "distance_m": 1678.0, "direction": "higher", "volume_million_m3": 5.81, "basin_volume_million_m3": 8.033, "empirical_volume_million_m3": 4.35, "lake_volume_million_m3": 5.81, "limited_by_existing_lake": true, "surface_area_km2": 0.2193, "storage_mwh": 2721.4, "estimated_mw": 340.2, "score": 340.1747, "implied_flow_m3_s": 201.7, "flow_limited": false, "basin_bounded": true, "dam_start_lon": 23.582273, "dam_start_lat": 47.73074, "dam_end_lon": 23.588208, "dam_end_lat": 47.729411 }, "geometry": { "type": "LineString", "coordinates": [ [ 23.607645395929065, 47.729748034257369 ], [ 23.585240477539735, 47.730075368868299 ] ] } },
{ "type": "Feature", "properties": { "type": "lake-new", "rank": 23, "lake_id": 14030, "lake_elevation_m": 656.7, "new_site_elevation_m": 499.0, "head_m": 157.7, "distance_m": 503.8, "direction": "lower", "volume_million_m3": 28.52, "basin_volume_million_m3": 28.52, "empirical_volume_million_m3": 10.758, "lake_volume_million_m3": 1230.0, "limited_by_existing_lake": false, "surface_area_km2": 0.5712, "storage_mwh": 10415.7, "estimated_mw": 328.7, "score": 328.6904, "implied_flow_m3_s": 990.3, "flow_limited": true, "basin_bounded": true, "dam_start_lon": 26.066507, "dam_start_lat": 47.009681, "dam_end_lon": 26.061376, "dam_end_lat": 47.003863 }, "geometry": { "type": "LineString", "coordinates": [ [ 26.058759122859421, 47.003944600667538 ], [ 26.063941455965526, 47.006771935278465 ] ] } },
{ "type": "Feature", "properties": { "type": "lake-new", "rank": 24, "lake_id": 169198, "lake_elevation_m": 324.0, "new_site_elevation_m": 471.2, "head_m": 147.2, "distance_m": 1868.8, "direction": "higher", "volume_million_m3": 10.0, "basin_volume_million_m3": 10.187, "empirical_volume_million_m3": 5.265, "lake_volume_million_m3": 10.0, "limited_by_existing_lake": true, "surface_area_km2": 0.2683, "storage_mwh": 3408.6, "estimated_mw": 306.8, "score": 306.7713, "implied_flow_m3_s": 347.2, "flow_limited": true, "basin_bounded": true, "dam_start_lon": 26.345105, "dam_start_lat": 46.944127, "dam_end_lon": 26.340096, "dam_end_lat": 46.947283 }, "geometry": { "type": "LineString", "coordinates": [ [ 26.324606342443843, 46.934266729149797 ], [ 26.342600751399125, 46.94570517487184 ] ] } },
{ "type": "Feature", "properties": { "type": "lake-new", "rank": 25, "lake_id": 169456, "lake_elevation_m": 299.5, "new_site_elevation_m": 440.5, "head_m": 141.0, "distance_m": 1981.6, "direction": "higher", "volume_million_m3": 9.19, "basin_volume_million_m3": 10.525, "empirical_volume_million_m3": 5.427, "lake_volume_million_m3": 9.19, "limited_by_existing_lake": true, "surface_area_km2": 0.2771, "storage_mwh": 3002.3, "estimated_mw": 294.0, "score": 294.0259, "implied_flow_m3_s": 319.1, "flow_limited": true, "basin_bounded": true, "dam_start_lon": 24.167036, "dam_start_lat": 46.634943, "dam_end_lon": 24.16666, "dam_end_lat": 46.630221 }, "geometry": { "type": "LineString", "coordinates": [ [ 24.140928724135659, 46.6322546054584 ], [ 24.166848100527062, 46.632581940069329 ] ] } },
{ "type": "Feature", "properties": { "type": "lake-new", "rank": 26, "lake_id": 1360316, "lake_elevation_m": 231.0, "new_site_elevation_m": 469.7, "head_m": 238.7, "distance_m": 1662.7, "direction": "higher", "volume_million_m3": 4.248, "basin_volume_million_m3": 4.248, "empirical_volume_million_m3": 2.951, "lake_volume_million_m3": 15.8, "limited_by_existing_lake": false, "surface_area_km2": 0.1455, "storage_mwh": 2348.6, "estimated_mw": 293.6, "score": 293.5691, "implied_flow_m3_s": 147.5, "flow_limited": false, "basin_bounded": true, "dam_start_lon": 22.439808, "dam_start_lat": 44.942482, "dam_end_lon": 22.438126, "dam_end_lat": 44.939268 }, "geometry": { "type": "LineString", "coordinates": [ [ 22.459207980926859, 44.936658555804371 ], [ 22.43896683541589, 44.940874779304188 ] ] } },
{ "type": "Feature", "properties": { "type": "lake-new", "rank": 27, "lake_id": 1350050, "lake_elevation_m": 169.5, "new_site_elevation_m": 303.3, "head_m": 133.8, "distance_m": 1792.7, "direction": "higher", "volume_million_m3": 9.19, "basin_volume_million_m3": 9.19, "empirical_volume_million_m3": 6.243, "lake_volume_million_m3": 9.4, "limited_by_existing_lake": false, "surface_area_km2": 0.3213, "storage_mwh": 2848.7, "estimated_mw": 279.0, "score": 278.9791, "implied_flow_m3_s": 319.1, "flow_limited": true, "basin_bounded": false, "dam_start_lon": 26.808687, "dam_start_lat": 47.440773, "dam_end_lon": 26.801404, "dam_end_lat": 47.439476 }, "geometry": { "type": "LineString", "coordinates": [ [ 26.811477460569154, 47.455630319720953 ], [ 26.805045422091546, 47.440124320998549 ] ] } },
{ "type": "Feature", "properties": { "type": "lake-new", "rank": 28, "lake_id": 1356659, "lake_elevation_m": 292.5, "new_site_elevation_m": 425.3, "head_m": 132.8, "distance_m": 1999.8, "direction": "higher", "volume_million_m3": 9.988, "basin_volume_million_m3": 9.988, "empirical_volume_million_m3": 7.339, "lake_volume_million_m3": 13.0, "limited_by_existing_lake": false, "surface_area_km2": 0.3813, "storage_mwh": 3072.7, "estimated_mw": 276.9, "score": 276.8744, "implied_flow_m3_s": 346.8, "flow_limited": true, "basin_bounded": true, "dam_start_lon": 23.586038, "dam_start_lat": 45.902941, "dam_end_lon": 23.587654, "dam_end_lat": 45.897509 }, "geometry": { "type": "LineString", "coordinates": [ [ 23.561136262796115, 45.901841990391091 ], [ 23.58684640990802, 45.900224880557573 ] ] } },
{ "type": "Feature", "properties": { "type": "lake-new", "rank": 29, "lake_id": 170943, "lake_elevation_m": 385.7, "new_site_elevation_m": 259.0, "head_m": 126.7, "distance_m": 694.1, "direction": "lower", "volume_million_m3": 11.2, "basin_volume_million_m3": 32.962, "empirical_volume_million_m3": 12.647, "lake_volume_million_m3": 11.2, "limited_by_existing_lake": true, "surface_area_km2": 0.6778, "storage_mwh": 3287.2, "estimated_mw": 264.2, "score": 264.1531, "implied_flow_m3_s": 388.9, "flow_limited": true, "basin_bounded": true, "dam_start_lon": 24.377863, "dam_start_lat": 45.20548, "dam_end_lon": 24.375843, "dam_end_lat": 45.198436 }, "geometry": { "type": "LineString", "coordinates": [ [ 24.368045543746369, 45.201352871940237 ], [ 24.376853258787431, 45.201957984328942 ] ] } },
{ "type": "Feature", "properties": { "type": "lake-new", "rank": 30, "lake_id": 171042, "lake_elevation_m": 387.5, "new_site_elevation_m": 511.4, "head_m": 123.9, "distance_m": 1874.9, "direction": "higher", "volume_million_m3": 11.798, "basin_volume_million_m3": 11.798, "empirical_volume_million_m3": 5.733, "lake_volume_million_m3": 13.3, "limited_by_existing_lake": false, "surface_area_km2": 0.2936, "storage_mwh": 3385.8, "estimated_mw": 258.3, "score": 258.2736, "implied_flow_m3_s": 409.7, "flow_limited": true, "basin_bounded": true, "dam_start_lon": 24.678934, "dam_start_lat": 45.102278, "dam_end_lon": 24.684747, "dam_end_lat": 45.09966 }, "geometry": { "type": "LineString", "coordinates": [ [ 24.661872418489402, 45.09175303772173 ], [ 24.68184022198281, 45.10096926122155 ] ] } },
{ "type": "Feature", "properties": { "type": "lake-new", "rank": 31, "lake_id": 1359151, "lake_elevation_m": 330.4, "new_site_elevation_m": 580.4, "head_m": 249.9, "distance_m": 1997.8, "direction": "higher", "volume_million_m3": 3.54, "basin_volume_million_m3": 6.499, "empirical_volume_million_m3": 5.016, "lake_volume_million_m3": 3.54, "limited_by_existing_lake": true, "surface_area_km2": 0.255, "storage_mwh": 2049.2, "estimated_mw": 256.1, "score": 256.1439, "implied_flow_m3_s": 122.9, "flow_limited": false, "basin_bounded": true, "dam_start_lon": 24.329409, "dam_start_lat": 45.286186, "dam_end_lon": 24.32888, "dam_end_lat": 45.281666 }, "geometry": { "type": "LineString", "coordinates": [ [ 24.303707620627623, 45.285265247033962 ], [ 24.329144313192678, 45.283925914978227 ] ] } },
{ "type": "Feature", "properties": { "type": "lake-new", "rank": 32, "lake_id": 170555, "lake_elevation_m": 1247.5, "new_site_elevation_m": 1369.2, "head_m": 121.7, "distance_m": 1118.0, "direction": "higher", "volume_million_m3": 7.972, "basin_volume_million_m3": 7.972, "empirical_volume_million_m3": 4.88, "lake_volume_million_m3": 136.0, "limited_by_existing_lake": false, "surface_area_km2": 0.2477, "storage_mwh": 2246.5, "estimated_mw": 253.6, "score": 253.6163, "implied_flow_m3_s": 276.8, "flow_limited": true, "basin_bounded": true, "dam_start_lon": 23.628864, "dam_start_lat": 45.563448, "dam_end_lon": 23.629287, "dam_end_lat": 45.567909 }, "geometry": { "type": "LineString", "coordinates": [ [ 23.615989964612833, 45.569795676555046 ], [ 23.62907539348922, 45.56567856672153 ] ] } },
{ "type": "Feature", "properties": { "type": "lake-new", "rank": 33, "lake_id": 1359290, "lake_elevation_m": 274.5, "new_site_elevation_m": 551.6, "head_m": 277.1, "distance_m": 1729.6, "direction": "higher", "volume_million_m3": 3.16, "basin_volume_million_m3": 10.343, "empirical_volume_million_m3": 5.792, "lake_volume_million_m3": 3.16, "limited_by_existing_lake": true, "surface_area_km2": 0.2969, "storage_mwh": 2028.2, "estimated_mw": 253.5, "score": 253.531, "implied_flow_m3_s": 109.7, "flow_limited": false, "basin_bounded": true, "dam_start_lon": 24.346961, "dam_start_lat": 45.267896, "dam_end_lon": 24.343296, "dam_end_lat": 45.263737 }, "geometry": { "type": "LineString", "coordinates": [ [ 24.338287441365768, 45.251044987125617 ], [ 24.345128412864465, 45.26581676618099 ] ] } },
{ "type": "Feature", "properties": { "type": "lake-new", "rank": 34, "lake_id": 1359061, "lake_elevation_m": 297.0, "new_site_elevation_m": 483.9, "head_m": 186.9, "distance_m": 1726.2, "direction": "higher", "volume_million_m3": 4.54, "basin_volume_million_m3": 5.514, "empirical_volume_million_m3": 3.498, "lake_volume_million_m3": 4.54, "limited_by_existing_lake": true, "surface_area_km2": 0.1742, "storage_mwh": 1965.6, "estimated_mw": 245.7, "score": 245.7043, "implied_flow_m3_s": 157.6, "flow_limited": false, "basin_bounded": true, "dam_start_lon": 21.988251, "dam_start_lat": 45.291395, "dam_end_lon": 21.987117, "dam_end_lat": 45.287731 }, "geometry": { "type": "LineString", "coordinates": [ [ 21.98753369582187, 45.305068908943014 ], [ 21.987683691564897, 45.28956291022061 ] ] } },
{ "type": "Feature", "properties": { "type": "lake-new", "rank": 35, "lake_id": 171006, "lake_elevation_m": 247.2, "new_site_elevation_m": 362.5, "head_m": 115.3, "distance_m": 1931.7, "direction": "higher", "volume_million_m3": 13.759, "basin_volume_million_m3": 13.759, "empirical_volume_million_m3": 7.606, "lake_volume_million_m3": 19.0, "limited_by_existing_lake": false, "surface_area_km2": 0.3959, "storage_mwh": 3675.7, "estimated_mw": 240.4, "score": 240.4377, "implied_flow_m3_s": 477.7, "flow_limited": true, "basin_bounded": false, "dam_start_lon": 24.408981, "dam_start_lat": 45.124022, "dam_end_lon": 24.408663, "dam_end_lat": 45.12967 }, "geometry": { "type": "LineString", "coordinates": [ [ 24.387206977334191, 45.135129915717165 ], [ 24.408822097141236, 45.126846139216987 ] ] } },
{ "type": "Feature", "properties": { "type": "lake-new", "rank": 36, "lake_id": 1358923, "lake_elevation_m": 1032.5, "new_site_elevation_m": 920.6, "head_m": 111.9, "distance_m": 1993.6, "direction": "lower", "volume_million_m3": 7.7, "basin_volume_million_m3": 7.7, "empirical_volume_million_m3": 4.145, "lake_volume_million_m3": 210.0, "limited_by_existing_lake": false, "surface_area_km2": 0.2084, "storage_mwh": 1995.7, "estimated_mw": 233.3, "score": 233.2602, "implied_flow_m3_s": 267.4, "flow_limited": true, "basin_bounded": true, "dam_start_lon": 22.733893, "dam_start_lat": 45.342206, "dam_end_lon": 22.728816, "dam_end_lat": 45.344226 }, "geometry": { "type": "LineString", "coordinates": [ [ 22.713993936526897, 45.330110819069198 ], [ 22.731354862982379, 45.343215931457905 ] ] } },
{ "type": "Feature", "properties": { "type": "lake-new", "rank": 37, "lake_id": 1352003, "lake_elevation_m": 349.5, "new_site_elevation_m": 467.8, "head_m": 118.3, "distance_m": 1550.1, "direction": "higher", "volume_million_m3": 6.78, "basin_volume_million_m3": 11.155, "empirical_volume_million_m3": 7.375, "lake_volume_million_m3": 6.78, "limited_by_existing_lake": true, "surface_area_km2": 0.3832, "storage_mwh": 1857.6, "estimated_mw": 232.2, "score": 232.1959, "implied_flow_m3_s": 235.4, "flow_limited": false, "basin_bounded": true, "dam_start_lon": 26.233342, "dam_start_lat": 46.948767, "dam_end_lon": 26.240789, "dam_end_lat": 46.951019 }, "geometry": { "type": "LineString", "coordinates": [ [ 26.241016762087696, 46.936232177680495 ], [ 26.23706576088793, 46.94989284562476 ] ] } },
{ "type": "Feature", "properties": { "type": "lake-new", "rank": 38, "lake_id": 1352751, "lake_elevation_m": 419.0, "new_site_elevation_m": 612.5, "head_m": 193.5, "distance_m": 1227.8, "direction": "higher", "volume_million_m3": 4.08, "basin_volume_million_m3": 10.512, "empirical_volume_million_m3": 9.743, "lake_volume_million_m3": 4.08, "limited_by_existing_lake": true, "surface_area_km2": 0.5144, "storage_mwh": 1828.3, "estimated_mw": 228.5, "score": 228.5332, "implied_flow_m3_s": 141.7, "flow_limited": false, "basin_bounded": false, "dam_start_lon": 23.34405, "dam_start_lat": 46.742411, "dam_end_lon": 23.351663, "dam_end_lat": 46.738631 }, "geometry": { "type": "LineString", "coordinates": [ [ 23.363934383978211, 46.74102742196964 ], [ 23.347856578054213, 46.740521423247237 ] ] } },
{ "type": "Feature", "properties": { "type": "lake-new", "rank": 39, "lake_id": 170318, "lake_elevation_m": 435.6, "new_site_elevation_m": 541.8, "head_m": 106.3, "distance_m": 1998.4, "direction": "higher", "volume_million_m3": 8.553, "basin_volume_million_m3": 8.553, "empirical_volume_million_m3": 6.153, "lake_volume_million_m3": 12.3, "limited_by_existing_lake": false, "surface_area_km2": 0.3164, "storage_mwh": 2105.4, "estimated_mw": 221.5, "score": 221.5408, "implied_flow_m3_s": 297.0, "flow_limited": true, "basin_bounded": false, "dam_start_lon": 24.86277, "dam_start_lat": 45.83997, "dam_end_lon": 24.863813, "dam_end_lat": 45.844971 }, "geometry": { "type": "LineString", "coordinates": [ [ 24.888941545292685, 45.840754040999187 ], [ 24.863291164507917, 45.842470264499006 ] ] } },
{ "type": "Feature", "properties": { "type": "lake-new", "rank": 40, "lake_id": 169061, "lake_elevation_m": 795.5, "new_site_elevation_m": 898.1, "head_m": 102.6, "distance_m": 1914.9, "direction": "higher", "volume_million_m3": 18.905, "basin_volume_million_m3": 18.905, "empirical_volume_million_m3": 10.981, "lake_volume_million_m3": 90.0, "limited_by_existing_lake": false, "surface_area_km2": 0.5837, "storage_mwh": 4493.4, "estimated_mw": 213.9, "score": 213.9215, "implied_flow_m3_s": 656.4, "flow_limited": true, "basin_bounded": true, "dam_start_lon": 24.918669, "dam_start_lat": 47.160855, "dam_end_lon": 24.922725, "dam_end_lat": 47.15457 }, "geometry": { "type": "LineString", "coordinates": [ [ 24.902819195707995, 47.169885062700821 ], [ 24.920697105497947, 47.157712397311748 ] ] } },
{ "type": "Feature", "properties": { "type": "lake-new", "rank": 41, "lake_id": 1357428, "lake_elevation_m": 773.4, "new_site_elevation_m": 1003.3, "head_m": 229.9, "distance_m": 1856.8, "direction": "higher", "volume_million_m3": 3.21, "basin_volume_million_m3": 10.218, "empirical_volume_million_m3": 6.94, "lake_volume_million_m3": 3.21, "limited_by_existing_lake": true, "surface_area_km2": 0.3594, "storage_mwh": 1709.3, "estimated_mw": 213.7, "score": 213.6589, "implied_flow_m3_s": 111.5, "flow_limited": false, "basin_bounded": true, "dam_start_lon": 23.610846, "dam_start_lat": 45.700025, "dam_end_lon": 23.617952, "dam_end_lat": 45.697938 }, "geometry": { "type": "LineString", "coordinates": [ [ 23.603310326670606, 45.684209978750225 ], [ 23.614398873691496, 45.698981757805598 ] ] } },
{ "type": "Feature", "properties": { "type": "lake-new", "rank": 42, "lake_id": 171167, "lake_elevation_m": 298.0, "new_site_elevation_m": 400.0, "head_m": 102.0, "distance_m": 1559.8, "direction": "higher", "volume_million_m3": 13.746, "basin_volume_million_m3": 13.746, "empirical_volume_million_m3": 6.583, "lake_volume_million_m3": 54.9, "limited_by_existing_lake": false, "surface_area_km2": 0.3398, "storage_mwh": 3247.5, "estimated_mw": 212.6, "score": 212.629, "implied_flow_m3_s": 477.3, "flow_limited": true, "basin_bounded": true, "dam_start_lon": 24.816448, "dam_start_lat": 44.938389, "dam_end_lon": 24.822601, "dam_end_lat": 44.935483 }, "geometry": { "type": "LineString", "coordinates": [ [ 24.806149982459139, 44.926608975242686 ], [ 24.819524388674072, 44.936936309853614 ] ] } },
{ "type": "Feature", "properties": { "type": "lake-new", "rank": 43, "lake_id": 168728, "lake_elevation_m": 310.0, "new_site_elevation_m": 420.8, "head_m": 110.8, "distance_m": 1744.7, "direction": "higher", "volume_million_m3": 6.607, "basin_volume_million_m3": 6.607, "empirical_volume_million_m3": 7.988, "lake_volume_million_m3": 22.8, "limited_by_existing_lake": false, "surface_area_km2": 0.417, "storage_mwh": 1696.2, "estimated_mw": 212.0, "score": 212.0219, "implied_flow_m3_s": 229.4, "flow_limited": false, "basin_bounded": false, "dam_start_lon": 26.211915, "dam_start_lat": 47.703782, "dam_end_lon": 26.205019, "dam_end_lat": 47.707262 }, "geometry": { "type": "LineString", "coordinates": [ [ 26.231692125092586, 47.704361528785462 ], [ 26.208466884284704, 47.705522196729724 ] ] } },
{ "type": "Feature", "properties": { "type": "lake-new", "rank": 44, "lake_id": 1357899, "lake_elevation_m": 1071.6, "new_site_elevation_m": 1252.0, "head_m": 180.4, "distance_m": 1988.6, "direction": "higher", "volume_million_m3": 3.771, "basin_volume_million_m3": 3.771, "empirical_volume_million_m3": 2.869, "lake_volume_million_m3": 6.13, "limited_by_existing_lake": false, "surface_area_km2": 0.1412, "storage_mwh": 1575.7, "estimated_mw": 197.0, "score": 196.9671, "implied_flow_m3_s": 130.9, "flow_limited": false, "basin_bounded": true, "dam_start_lon": 25.085107, "dam_start_lat": 45.588703, "dam_end_lon": 25.080453, "dam_end_lat": 45.587819 }, "geometry": { "type": "LineString", "coordinates": [ [ 25.084416652016149, 45.570433530856903 ], [ 25.082779567210494, 45.588260865467831 ] ] } },
{ "type": "Feature", "properties": { "type": "lake-new", "rank": 45, "lake_id": 1354086, "lake_elevation_m": 854.2, "new_site_elevation_m": 1028.9, "head_m": 174.7, "distance_m": 1065.1, "direction": "higher", "volume_million_m3": 3.16, "basin_volume_million_m3": 14.729, "empirical_volume_million_m3": 9.616, "lake_volume_million_m3": 3.16, "limited_by_existing_lake": true, "surface_area_km2": 0.5073, "storage_mwh": 1278.6, "estimated_mw": 159.8, "score": 159.8193, "implied_flow_m3_s": 109.7, "flow_limited": false, "basin_bounded": true, "dam_start_lon": 25.881391, "dam_start_lat": 46.436429, "dam_end_lon": 25.873188, "dam_end_lat": 46.439427 }, "geometry": { "type": "LineString", "coordinates": [ [ 25.886002662666879, 46.445378826671231 ], [ 25.877289710021202, 46.437928383504385 ] ] } },
{ "type": "Feature", "properties": { "type": "lake-new", "rank": 46, "lake_id": 1356750, "lake_elevation_m": 551.5, "new_site_elevation_m": 700.6, "head_m": 149.1, "distance_m": 1996.4, "direction": "higher", "volume_million_m3": 3.67, "basin_volume_million_m3": 6.682, "empirical_volume_million_m3": 5.805, "lake_volume_million_m3": 3.67, "limited_by_existing_lake": true, "surface_area_km2": 0.2975, "storage_mwh": 1267.5, "estimated_mw": 158.4, "score": 158.4426, "implied_flow_m3_s": 127.4, "flow_limited": false, "basin_bounded": false, "dam_start_lon": 25.945067, "dam_start_lat": 45.902085, "dam_end_lon": 25.948527, "dam_end_lat": 45.897818 }, "geometry": { "type": "LineString", "coordinates": [ [ 25.937467111222084, 45.883235243377023 ], [ 25.946797017616809, 45.899951466876843 ] ] } },
{ "type": "Feature", "properties": { "type": "lake-new", "rank": 47, "lake_id": 1359804, "lake_elevation_m": 4.0, "new_site_elevation_m": 231.1, "head_m": 227.1, "distance_m": 1922.8, "direction": "higher", "volume_million_m3": 2.39, "basin_volume_million_m3": 14.432, "empirical_volume_million_m3": 7.535, "lake_volume_million_m3": 2.39, "limited_by_existing_lake": true, "surface_area_km2": 0.392, "storage_mwh": 1257.0, "estimated_mw": 157.1, "score": 157.1278, "implied_flow_m3_s": 83.0, "flow_limited": false, "basin_bounded": true, "dam_start_lon": 28.203976, "dam_start_lat": 45.109862, "dam_end_lon": 28.20708, "dam_end_lat": 45.104681 }, "geometry": { "type": "LineString", "coordinates": [ [ 28.184737960865213, 45.116388882823657 ], [ 28.205528113082114, 45.107271772990146 ] ] } },
{ "type": "Feature", "properties": { "type": "lake-new", "rank": 48, "lake_id": 1354549, "lake_elevation_m": 692.0, "new_site_elevation_m": 873.0, "head_m": 181.0, "distance_m": 1834.5, "direction": "higher", "volume_million_m3": 2.88, "basin_volume_million_m3": 5.641, "empirical_volume_million_m3": 3.863, "lake_volume_million_m3": 2.88, "limited_by_existing_lake": true, "surface_area_km2": 0.1934, "storage_mwh": 1207.5, "estimated_mw": 150.9, "score": 150.9374, "implied_flow_m3_s": 100.0, "flow_limited": false, "basin_bounded": true, "dam_start_lon": 23.219287, "dam_start_lat": 46.316914, "dam_end_lon": 23.214711, "dam_end_lat": 46.314543 }, "geometry": { "type": "LineString", "coordinates": [ [ 23.220102219012727, 46.332067705403091 ], [ 23.216998893514106, 46.315728373347355 ] ] } },
{ "type": "Feature", "properties": { "type": "lake-new", "rank": 49, "lake_id": 170072, "lake_elevation_m": 475.0, "new_site_elevation_m": 596.7, "head_m": 121.7, "distance_m": 1633.0, "direction": "higher", "volume_million_m3": 4.26, "basin_volume_million_m3": 4.395, "empirical_volume_million_m3": 3.276, "lake_volume_million_m3": 4.26, "limited_by_existing_lake": true, "surface_area_km2": 0.1625, "storage_mwh": 1200.8, "estimated_mw": 150.1, "score": 150.1021, "implied_flow_m3_s": 147.9, "flow_limited": false, "basin_bounded": false, "dam_start_lon": 24.810067, "dam_start_lat": 46.08553, "dam_end_lon": 24.81103, "dam_end_lat": 46.08197 }, "geometry": { "type": "LineString", "coordinates": [ [ 24.813805379147258, 46.069256130226982 ], [ 24.810548440925718, 46.08375013150458 ] ] } },
{ "type": "Feature", "properties": { "type": "lake-new", "rank": 50, "lake_id": 170385, "lake_elevation_m": 390.5, "new_site_elevation_m": 571.9, "head_m": 181.4, "distance_m": 1971.6, "direction": "higher", "volume_million_m3": 2.765, "basin_volume_million_m3": 2.765, "empirical_volume_million_m3": 3.899, "lake_volume_million_m3": 5.2, "limited_by_existing_lake": false, "surface_area_km2": 0.1954, "storage_mwh": 1161.7, "estimated_mw": 145.2, "score": 145.2104, "implied_flow_m3_s": 96.0, "flow_limited": false, "basin_bounded": false, "dam_start_lon": 24.532765, "dam_start_lat": 45.800347, "dam_end_lon": 24.538393, "dam_end_lat": 45.800949 }, "geometry": { "type": "LineString", "coordinates": [ [ 24.528425122173175, 45.783654024079389 ], [ 24.535578945965167, 45.800648025356985 ] ] } },
{ "type": "Feature", "properties": { "type": "lake-new", "rank": 51, "lake_id": 170714, "lake_elevation_m": 931.4, "new_site_elevation_m": 1065.3, "head_m": 133.9, "distance_m": 1700.4, "direction": "higher", "volume_million_m3": 3.737, "basin_volume_million_m3": 3.737, "empirical_volume_million_m3": 2.579, "lake_volume_million_m3": 24.93, "limited_by_existing_lake": false, "surface_area_km2": 0.1262, "storage_mwh": 1159.2, "estimated_mw": 144.9, "score": 144.8981, "implied_flow_m3_s": 129.8, "flow_limited": false, "basin_bounded": true, "dam_start_lon": 25.074826, "dam_start_lat": 45.419004, "dam_end_lon": 25.071826, "dam_end_lat": 45.416606 }, "geometry": { "type": "LineString", "coordinates": [ [ 25.057666682120811, 45.407199860193025 ], [ 25.073326088645199, 45.417804972581735 ] ] } },
{ "type": "Feature", "properties": { "type": "lake-new", "rank": 52, "lake_id": 1361871, "lake_elevation_m": 10.5, "new_site_elevation_m": 120.8, "head_m": 110.3, "distance_m": 1529.2, "direction": "higher", "volume_million_m3": 4.51, "basin_volume_million_m3": 5.841, "empirical_volume_million_m3": 10.832, "lake_volume_million_m3": 4.51, "limited_by_existing_lake": true, "surface_area_km2": 0.5754, "storage_mwh": 1152.0, "estimated_mw": 144.0, "score": 143.9954, "implied_flow_m3_s": 156.6, "flow_limited": false, "basin_bounded": false, "dam_start_lon": 27.662943, "dam_start_lat": 44.115664, "dam_end_lon": 27.660689, "dam_end_lat": 44.109045 }, "geometry": { "type": "LineString", "coordinates": [ [ 27.645586207171871, 44.105082994647063 ], [ 27.661815861405316, 44.112354773702435 ] ] } },
{ "type": "Feature", "properties": { "type": "lake-new", "rank": 53, "lake_id": 1359383, "lake_elevation_m": 590.0, "new_site_elevation_m": 731.6, "head_m": 141.6, "distance_m": 1348.7, "direction": "higher", "volume_million_m3": 3.23, "basin_volume_million_m3": 4.271, "empirical_volume_million_m3": 3.157, "lake_volume_million_m3": 3.23, "limited_by_existing_lake": true, "surface_area_km2": 0.1563, "storage_mwh": 1059.6, "estimated_mw": 132.4, "score": 132.4481, "implied_flow_m3_s": 112.2, "flow_limited": false, "basin_bounded": true, "dam_start_lon": 22.040628, "dam_start_lat": 45.207149, "dam_end_lon": 22.035617, "dam_end_lat": 45.206764 }, "geometry": { "type": "LineString", "coordinates": [ [ 22.022097033993507, 45.211351280198265 ], [ 22.038122489192578, 45.206956392586974 ] ] } },
{ "type": "Feature", "properties": { "type": "lake-new", "rank": 54, "lake_id": 1356686, "lake_elevation_m": 329.5, "new_site_elevation_m": 583.0, "head_m": 253.5, "distance_m": 1973.7, "direction": "higher", "volume_million_m3": 1.59, "basin_volume_million_m3": 5.375, "empirical_volume_million_m3": 4.604, "lake_volume_million_m3": 1.59, "limited_by_existing_lake": true, "surface_area_km2": 0.2329, "storage_mwh": 933.5, "estimated_mw": 116.7, "score": 116.6925, "implied_flow_m3_s": 55.2, "flow_limited": false, "basin_bounded": true, "dam_start_lon": 22.852829, "dam_start_lat": 45.881783, "dam_end_lon": 22.858429, "dam_end_lat": 45.879883 }, "geometry": { "type": "LineString", "coordinates": [ [ 22.856028648863905, 45.898561118984261 ], [ 22.855629210389225, 45.880832898039635 ] ] } },
{ "type": "Feature", "properties": { "type": "lake-new", "rank": 55, "lake_id": 1358838, "lake_elevation_m": 479.0, "new_site_elevation_m": 690.5, "head_m": 211.5, "distance_m": 1932.5, "direction": "higher", "volume_million_m3": 1.88, "basin_volume_million_m3": 10.58, "empirical_volume_million_m3": 5.918, "lake_volume_million_m3": 1.88, "limited_by_existing_lake": true, "surface_area_km2": 0.3037, "storage_mwh": 920.9, "estimated_mw": 115.1, "score": 115.1118, "implied_flow_m3_s": 65.3, "flow_limited": false, "basin_bounded": true, "dam_start_lon": 23.99854, "dam_start_lat": 45.350133, "dam_end_lon": 23.998508, "dam_end_lat": 45.345183 }, "geometry": { "type": "LineString", "coordinates": [ [ 24.01756467502199, 45.358719814013895 ], [ 23.998523794461121, 45.347658259735937 ] ] } },
{ "type": "Feature", "properties": { "type": "lake-new", "rank": 56, "lake_id": 1358899, "lake_elevation_m": 1413.8, "new_site_elevation_m": 1567.1, "head_m": 153.3, "distance_m": 1990.3, "direction": "higher", "volume_million_m3": 2.47, "basin_volume_million_m3": 4.484, "empirical_volume_million_m3": 2.815, "lake_volume_million_m3": 2.47, "limited_by_existing_lake": true, "surface_area_km2": 0.1384, "storage_mwh": 877.1, "estimated_mw": 109.6, "score": 109.6333, "implied_flow_m3_s": 85.8, "flow_limited": false, "basin_bounded": true, "dam_start_lon": 25.405264, "dam_start_lat": 45.346408, "dam_end_lon": 25.400583, "dam_end_lat": 45.346998 }, "geometry": { "type": "LineString", "coordinates": [ [ 25.428347587969114, 45.346097809624531 ], [ 25.402923520264089, 45.346702922013236 ] ] } },
{ "type": "Feature", "properties": { "type": "lake-new", "rank": 57, "lake_id": 170828, "lake_elevation_m": 1.0, "new_site_elevation_m": 110.9, "head_m": 109.9, "distance_m": 1923.7, "direction": "higher", "volume_million_m3": 3.44, "basin_volume_million_m3": 6.768, "empirical_volume_million_m3": 3.269, "lake_volume_million_m3": 3.44, "limited_by_existing_lake": true, "surface_area_km2": 0.1621, "storage_mwh": 875.8, "estimated_mw": 109.5, "score": 109.4785, "implied_flow_m3_s": 119.4, "flow_limited": false, "basin_bounded": false, "dam_start_lon": 28.375092, "dam_start_lat": 45.2682, "dam_end_lon": 28.380156, "dam_end_lat": 45.268824 }, "geometry": { "type": "LineString", "coordinates": [ [ 28.372465200205681, 45.285407038337013 ], [ 28.377624051166897, 45.268512150725719 ] ] } },
{ "type": "Feature", "properties": { "type": "lake-new", "rank": 58, "lake_id": 1355556, "lake_elevation_m": 943.0, "new_site_elevation_m": 1209.4, "head_m": 266.4, "distance_m": 1031.4, "direction": "higher", "volume_million_m3": 1.33, "basin_volume_million_m3": 12.816, "empirical_volume_million_m3": 6.561, "lake_volume_million_m3": 1.33, "limited_by_existing_lake": true, "surface_area_km2": 0.3386, "storage_mwh": 820.8, "estimated_mw": 102.6, "score": 102.6006, "implied_flow_m3_s": 46.2, "flow_limited": false, "basin_bounded": true, "dam_start_lon": 25.880742, "dam_start_lat": 46.131218, "dam_end_lon": 25.877341, "dam_end_lat": 46.135884 }, "geometry": { "type": "LineString", "coordinates": [ [ 25.887325520923103, 46.126279512515985 ], [ 25.879041789122695, 46.133551291571358 ] ] } },
{ "type": "Feature", "properties": { "type": "lake-new", "rank": 59, "lake_id": 171049, "lake_elevation_m": 228.9, "new_site_elevation_m": 339.9, "head_m": 110.9, "distance_m": 1872.6, "direction": "higher", "volume_million_m3": 2.848, "basin_volume_million_m3": 2.848, "empirical_volume_million_m3": 6.38, "lake_volume_million_m3": 4.6, "limited_by_existing_lake": false, "surface_area_km2": 0.3288, "storage_mwh": 732.0, "estimated_mw": 91.5, "score": 91.4979, "implied_flow_m3_s": 98.9, "flow_limited": false, "basin_bounded": false, "dam_start_lon": 24.393435, "dam_start_lat": 45.096896, "dam_end_lon": 24.395729, "dam_end_lat": 45.101785 }, "geometry": { "type": "LineString", "coordinates": [ [ 24.377112592533503, 45.087901970690375 ], [ 24.394582111855716, 45.099340416412417 ] ] } },
{ "type": "Feature", "properties": { "type": "lake-new", "rank": 60, "lake_id": 1359971, "lake_elevation_m": 220.5, "new_site_elevation_m": 333.7, "head_m": 113.2, "distance_m": 1478.5, "direction": "higher", "volume_million_m3": 2.703, "basin_volume_million_m3": 2.703, "empirical_volume_million_m3": 4.871, "lake_volume_million_m3": 4.8, "limited_by_existing_lake": false, "surface_area_km2": 0.2472, "storage_mwh": 708.7, "estimated_mw": 88.6, "score": 88.5903, "implied_flow_m3_s": 93.9, "flow_limited": false, "basin_bounded": false, "dam_start_lon": 23.27094, "dam_start_lat": 45.077814, "dam_end_lon": 23.267121, "dam_end_lat": 45.081374 }, "geometry": { "type": "LineString", "coordinates": [ [ 23.277107440344981, 45.067599951319977 ], [ 23.269030443879007, 45.079593952597577 ] ] } },
{ "type": "Feature", "properties": { "type": "lake-new", "rank": 61, "lake_id": 1354314, "lake_elevation_m": 105.5, "new_site_elevation_m": 247.4, "head_m": 141.9, "distance_m": 1319.8, "direction": "higher", "volume_million_m3": 2.13, "basin_volume_million_m3": 19.242, "empirical_volume_million_m3": 11.624, "lake_volume_million_m3": 2.13, "limited_by_existing_lake": true, "surface_area_km2": 0.62, "storage_mwh": 700.3, "estimated_mw": 87.5, "score": 87.5336, "implied_flow_m3_s": 74.0, "flow_limited": false, "basin_bounded": false, "dam_start_lon": 27.525634, "dam_start_lat": 46.377965, "dam_end_lon": 27.528159, "dam_end_lat": 46.38482 }, "geometry": { "type": "LineString", "coordinates": [ [ 27.540582032821256, 46.388565228836107 ], [ 27.526896232181734, 46.381392563447037 ] ] } },
{ "type": "Feature", "properties": { "type": "lake-new", "rank": 62, "lake_id": 1352734, "lake_elevation_m": 147.5, "new_site_elevation_m": 327.1, "head_m": 179.6, "distance_m": 1651.1, "direction": "higher", "volume_million_m3": 1.62, "basin_volume_million_m3": 8.414, "empirical_volume_million_m3": 7.982, "lake_volume_million_m3": 1.62, "limited_by_existing_lake": true, "surface_area_km2": 0.4167, "storage_mwh": 673.9, "estimated_mw": 84.2, "score": 84.2339, "implied_flow_m3_s": 56.2, "flow_limited": false, "basin_bounded": false, "dam_start_lon": 27.906988, "dam_start_lat": 46.734943, "dam_end_lon": 27.899865, "dam_end_lat": 46.738074 }, "geometry": { "type": "LineString", "coordinates": [ [ 27.91006480847852, 46.750625301126163 ], [ 27.903426778772516, 46.73650819129265 ] ] } },
{ "type": "Feature", "properties": { "type": "lake-new", "rank": 63, "lake_id": 168774, "lake_elevation_m": 77.0, "new_site_elevation_m": 182.6, "head_m": 105.6, "distance_m": 1689.3, "direction": "higher", "volume_million_m3": 2.632, "basin_volume_million_m3": 2.632, "empirical_volume_million_m3": 7.679, "lake_volume_million_m3": 51.76, "limited_by_existing_lake": false, "surface_area_km2": 0.4, "storage_mwh": 643.8, "estimated_mw": 80.5, "score": 80.4809, "implied_flow_m3_s": 91.4, "flow_limited": false, "basin_bounded": false, "dam_start_lon": 26.875242, "dam_start_lat": 47.644281, "dam_end_lon": 26.866998, "dam_end_lat": 47.645481 }, "geometry": { "type": "LineString", "coordinates": [ [ 26.886543005273694, 47.655942615660294 ], [ 26.871120307951301, 47.644881061382335 ] ] } },
{ "type": "Feature", "properties": { "type": "lake-new", "rank": 64, "lake_id": 1355268, "lake_elevation_m": 483.0, "new_site_elevation_m": 628.4, "head_m": 145.4, "distance_m": 1762.4, "direction": "higher", "volume_million_m3": 1.91, "basin_volume_million_m3": 3.112, "empirical_volume_million_m3": 5.297, "lake_volume_million_m3": 1.91, "limited_by_existing_lake": true, "surface_area_km2": 0.2701, "storage_mwh": 643.4, "estimated_mw": 80.4, "score": 80.4243, "implied_flow_m3_s": 66.3, "flow_limited": false, "basin_bounded": false, "dam_start_lon": 25.405721, "dam_start_lat": 46.17148, "dam_end_lon": 25.406902, "dam_end_lat": 46.166884 }, "geometry": { "type": "LineString", "coordinates": [ [ 25.398788824800732, 46.184132342727544 ], [ 25.406311160007281, 46.169181899560698 ] ] } },
{ "type": "Feature", "properties": { "type": "lake-new", "rank": 65, "lake_id": 1359758, "lake_elevation_m": 471.5, "new_site_elevation_m": 796.0, "head_m": 324.5, "distance_m": 1545.7, "direction": "higher", "volume_million_m3": 0.84, "basin_volume_million_m3": 3.605, "empirical_volume_million_m3": 2.773, "lake_volume_million_m3": 0.84, "limited_by_existing_lake": true, "surface_area_km2": 0.1363, "storage_mwh": 631.4, "estimated_mw": 78.9, "score": 78.9198, "implied_flow_m3_s": 29.2, "flow_limited": false, "basin_bounded": false, "dam_start_lon": 22.790623, "dam_start_lat": 45.136355, "dam_end_lon": 22.794774, "dam_end_lat": 45.134799 }, "geometry": { "type": "LineString", "coordinates": [ [ 22.81052570531552, 45.129693917520093 ], [ 22.792698808080619, 45.135576807686576 ] ] } },
{ "type": "Feature", "properties": { "type": "lake-new", "rank": 66, "lake_id": 169796, "lake_elevation_m": 95.5, "new_site_elevation_m": 235.9, "head_m": 140.4, "distance_m": 1882.5, "direction": "higher", "volume_million_m3": 1.314, "basin_volume_million_m3": 1.314, "empirical_volume_million_m3": 5.97, "lake_volume_million_m3": 23.21, "limited_by_existing_lake": false, "surface_area_km2": 0.3065, "storage_mwh": 427.3, "estimated_mw": 53.4, "score": 53.4139, "implied_flow_m3_s": 45.6, "flow_limited": false, "basin_bounded": false, "dam_start_lon": 27.58312, "dam_start_lat": 46.30605, "dam_end_lon": 27.589977, "dam_end_lat": 46.304535 }, "geometry": { "type": "LineString", "coordinates": [ [ 27.562415852784859, 46.302465500130992 ], [ 27.586548821890119, 46.30529283474192 ] ] } },
{ "type": "Feature", "properties": { "type": "lake-new", "rank": 67, "lake_id": 1359069, "lake_elevation_m": 827.0, "new_site_elevation_m": 1010.8, "head_m": 183.8, "distance_m": 1747.2, "direction": "higher", "volume_million_m3": 1.0, "basin_volume_million_m3": 8.546, "empirical_volume_million_m3": 4.84, "lake_volume_million_m3": 1.0, "limited_by_existing_lake": true, "surface_area_km2": 0.2455, "storage_mwh": 425.7, "estimated_mw": 53.2, "score": 53.2069, "implied_flow_m3_s": 34.7, "flow_limited": false, "basin_bounded": true, "dam_start_lon": 23.052643, "dam_start_lat": 45.281314, "dam_end_lon": 23.046585, "dam_end_lat": 45.2826 }, "geometry": { "type": "LineString", "coordinates": [ [ 23.05640480377, 45.296907237832727 ], [ 23.049614031993137, 45.281956794665881 ] ] } },
{ "type": "Feature", "properties": { "type": "lake-new", "rank": 68, "lake_id": 1355338, "lake_elevation_m": 93.5, "new_site_elevation_m": 239.9, "head_m": 146.4, "distance_m": 1770.6, "direction": "higher", "volume_million_m3": 1.2, "basin_volume_million_m3": 2.029, "empirical_volume_million_m3": 4.743, "lake_volume_million_m3": 1.2, "limited_by_existing_lake": true, "surface_area_km2": 0.2403, "storage_mwh": 406.9, "estimated_mw": 50.9, "score": 50.8619, "implied_flow_m3_s": 41.7, "flow_limited": false, "basin_bounded": false, "dam_start_lon": 27.203346, "dam_start_lat": 46.191112, "dam_end_lon": 27.207037, "dam_end_lat": 46.194699 }, "geometry": { "type": "LineString", "coordinates": [ [ 27.194888940874758, 46.178689239973323 ], [ 27.205191622792395, 46.192905463473146 ] ] } },
{ "type": "Feature", "properties": { "type": "lake-new", "rank": 69, "lake_id": 1353609, "lake_elevation_m": 211.6, "new_site_elevation_m": 403.8, "head_m": 192.2, "distance_m": 1997.5, "direction": "higher", "volume_million_m3": 0.86, "basin_volume_million_m3": 1.18, "empirical_volume_million_m3": 2.783, "lake_volume_million_m3": 0.86, "limited_by_existing_lake": true, "surface_area_km2": 0.1368, "storage_mwh": 382.9, "estimated_mw": 47.9, "score": 47.8563, "implied_flow_m3_s": 29.9, "flow_limited": false, "basin_bounded": false, "dam_start_lon": 27.21253, "dam_start_lat": 46.551345, "dam_end_lon": 27.212494, "dam_end_lat": 46.554667 }, "geometry": { "type": "LineString", "coordinates": [ [ 27.238499626268254, 46.554622735568032 ], [ 27.212512010519013, 46.553005625734514 ] ] } },
{ "type": "Feature", "properties": { "type": "lake-new", "rank": 70, "lake_id": 1352143, "lake_elevation_m": 148.0, "new_site_elevation_m": 282.6, "head_m": 134.6, "distance_m": 1984.4, "direction": "higher", "volume_million_m3": 1.15, "basin_volume_million_m3": 2.087, "empirical_volume_million_m3": 4.525, "lake_volume_million_m3": 1.15, "limited_by_existing_lake": true, "surface_area_km2": 0.2287, "storage_mwh": 358.5, "estimated_mw": 44.8, "score": 44.8081, "implied_flow_m3_s": 39.9, "flow_limited": false, "basin_bounded": false, "dam_start_lon": 27.699419, "dam_start_lat": 46.884067, "dam_end_lon": 27.705489, "dam_end_lat": 46.882947 }, "geometry": { "type": "LineString", "coordinates": [ [ 27.699721444902973, 46.901235292665184 ], [ 27.70245429063846, 46.883507071720558 ] ] } },
{ "type": "Feature", "properties": { "type": "lake-new", "rank": 71, "lake_id": 1354652, "lake_elevation_m": 136.5, "new_site_elevation_m": 272.1, "head_m": 135.6, "distance_m": 1985.1, "direction": "higher", "volume_million_m3": 1.14, "basin_volume_million_m3": 9.093, "empirical_volume_million_m3": 7.263, "lake_volume_million_m3": 1.14, "limited_by_existing_lake": true, "surface_area_km2": 0.3771, "storage_mwh": 358.2, "estimated_mw": 44.8, "score": 44.7689, "implied_flow_m3_s": 39.6, "flow_limited": false, "basin_bounded": false, "dam_start_lon": 27.419459, "dam_start_lat": 46.317815, "dam_end_lon": 27.42005, "dam_end_lat": 46.312314 }, "geometry": { "type": "LineString", "coordinates": [ [ 27.393961116500922, 46.315848174575088 ], [ 27.419754393124137, 46.315064398074909 ] ] } },
{ "type": "Feature", "properties": { "type": "lake-new", "rank": 72, "lake_id": 1354121, "lake_elevation_m": 139.5, "new_site_elevation_m": 311.9, "head_m": 172.4, "distance_m": 1677.4, "direction": "higher", "volume_million_m3": 0.81, "basin_volume_million_m3": 6.216, "empirical_volume_million_m3": 7.679, "lake_volume_million_m3": 0.81, "limited_by_existing_lake": true, "surface_area_km2": 0.4, "storage_mwh": 323.4, "estimated_mw": 40.4, "score": 40.4257, "implied_flow_m3_s": 28.1, "flow_limited": false, "basin_bounded": false, "dam_start_lon": 27.611532, "dam_start_lat": 46.452011, "dam_end_lon": 27.606323, "dam_end_lat": 46.447608 }, "geometry": { "type": "LineString", "coordinates": [ [ 27.627360960014791, 46.44170457755073 ], [ 27.608927543609042, 46.449809689939435 ] ] } },
{ "type": "Feature", "properties": { "type": "lake-new", "rank": 73, "lake_id": 1352017, "lake_elevation_m": 179.0, "new_site_elevation_m": 312.9, "head_m": 133.9, "distance_m": 1766.4, "direction": "higher", "volume_million_m3": 1.03, "basin_volume_million_m3": 10.832, "empirical_volume_million_m3": 7.624, "lake_volume_million_m3": 1.03, "limited_by_existing_lake": true, "surface_area_km2": 0.3969, "storage_mwh": 319.5, "estimated_mw": 39.9, "score": 39.9339, "implied_flow_m3_s": 35.8, "flow_limited": false, "basin_bounded": false, "dam_start_lon": 27.677991, "dam_start_lat": 46.952071, "dam_end_lon": 27.6729, "dam_end_lat": 46.947605 }, "geometry": { "type": "LineString", "coordinates": [ [ 27.660230988470147, 46.937844127840371 ], [ 27.675445861839592, 46.949838129117971 ] ] } },
{ "type": "Feature", "properties": { "type": "lake-new", "rank": 74, "lake_id": 1350989, "lake_elevation_m": 58.0, "new_site_elevation_m": 205.9, "head_m": 147.9, "distance_m": 1986.3, "direction": "higher", "volume_million_m3": 0.91, "basin_volume_million_m3": 0.91, "empirical_volume_million_m3": 1.904, "lake_volume_million_m3": 2.88, "limited_by_existing_lake": false, "surface_area_km2": 0.0916, "storage_mwh": 311.6, "estimated_mw": 39.0, "score": 38.9562, "implied_flow_m3_s": 31.6, "flow_limited": false, "basin_bounded": false, "dam_start_lon": 27.614154, "dam_start_lat": 47.2227, "dam_end_lon": 27.616654, "dam_end_lat": 47.220577 }, "geometry": { "type": "LineString", "coordinates": [ [ 27.589217564555469, 47.220200238493177 ], [ 27.615403737947094, 47.221638684215222 ] ] } },
{ "type": "Feature", "properties": { "type": "lake-new", "rank": 75, "lake_id": 1355297, "lake_elevation_m": 283.0, "new_site_elevation_m": 397.9, "head_m": 115.0, "distance_m": 952.2, "direction": "higher", "volume_million_m3": 1.06, "basin_volume_million_m3": 4.82, "empirical_volume_million_m3": 5.187, "lake_volume_million_m3": 1.06, "limited_by_existing_lake": true, "surface_area_km2": 0.2642, "storage_mwh": 282.3, "estimated_mw": 35.3, "score": 35.2835, "implied_flow_m3_s": 36.8, "flow_limited": false, "basin_bounded": false, "dam_start_lon": 22.735716, "dam_start_lat": 46.185423, "dam_end_lon": 22.74191, "dam_end_lat": 46.187133 }, "geometry": { "type": "LineString", "coordinates": [ [ 22.74462144917992, 46.178728418540253 ], [ 22.738813001498336, 46.186277975373407 ] ] } },
{ "type": "Feature", "properties": { "type": "lake-new", "rank": 76, "lake_id": 1352670, "lake_elevation_m": 341.0, "new_site_elevation_m": 449.7, "head_m": 108.7, "distance_m": 1867.2, "direction": "higher", "volume_million_m3": 1.05, "basin_volume_million_m3": 12.39, "empirical_volume_million_m3": 6.656, "lake_volume_million_m3": 1.05, "limited_by_existing_lake": true, "surface_area_km2": 0.3439, "storage_mwh": 264.3, "estimated_mw": 33.0, "score": 33.0342, "implied_flow_m3_s": 36.5, "flow_limited": false, "basin_bounded": false, "dam_start_lon": 24.002513, "dam_start_lat": 46.77536, "dam_end_lon": 23.994891, "dam_end_lat": 46.776059 }, "geometry": { "type": "LineString", "coordinates": [ [ 23.981180063522007, 46.76399342192245 ], [ 23.998702194484451, 46.775709645422268 ] ] } },
{ "type": "Feature", "properties": { "type": "lake-new", "rank": 77, "lake_id": 1351939, "lake_elevation_m": 328.0, "new_site_elevation_m": 438.5, "head_m": 110.5, "distance_m": 1561.9, "direction": "higher", "volume_million_m3": 1.01, "basin_volume_million_m3": 13.268, "empirical_volume_million_m3": 6.742, "lake_volume_million_m3": 1.01, "limited_by_existing_lake": true, "surface_area_km2": 0.3485, "storage_mwh": 258.5, "estimated_mw": 32.3, "score": 32.3135, "implied_flow_m3_s": 35.1, "flow_limited": false, "basin_bounded": true, "dam_start_lon": 24.208135, "dam_start_lat": 46.952318, "dam_end_lon": 24.204931, "dam_end_lat": 46.947487 }, "geometry": { "type": "LineString", "coordinates": [ [ 24.187993901607602, 46.955963923799004 ], [ 24.206533199693688, 46.949902369521048 ] ] } },
{ "type": "Feature", "properties": { "type": "lake-new", "rank": 78, "lake_id": 1352784, "lake_elevation_m": 139.0, "new_site_elevation_m": 327.1, "head_m": 188.1, "distance_m": 1823.7, "direction": "higher", "volume_million_m3": 0.57, "basin_volume_million_m3": 6.006, "empirical_volume_million_m3": 5.974, "lake_volume_million_m3": 0.57, "limited_by_existing_lake": true, "surface_area_km2": 0.3067, "storage_mwh": 248.3, "estimated_mw": 31.0, "score": 31.0406, "implied_flow_m3_s": 19.8, "flow_limited": false, "basin_bounded": false, "dam_start_lon": 27.906353, "dam_start_lat": 46.735144, "dam_end_lon": 27.900242, "dam_end_lat": 46.737829 }, "geometry": { "type": "LineString", "coordinates": [ [ 27.927151295932415, 46.737548148060249 ], [ 27.90329740389139, 46.736486593782288 ] ] } },
{ "type": "Feature", "properties": { "type": "lake-new", "rank": 79, "lake_id": 1359395, "lake_elevation_m": 831.0, "new_site_elevation_m": 940.2, "head_m": 109.2, "distance_m": 1992.6, "direction": "higher", "volume_million_m3": 0.89, "basin_volume_million_m3": 13.359, "empirical_volume_million_m3": 7.106, "lake_volume_million_m3": 0.89, "limited_by_existing_lake": true, "surface_area_km2": 0.3685, "storage_mwh": 225.1, "estimated_mw": 28.1, "score": 28.1374, "implied_flow_m3_s": 30.9, "flow_limited": false, "basin_bounded": true, "dam_start_lon": 22.128433, "dam_start_lat": 45.200361, "dam_end_lon": 22.12082, "dam_end_lat": 45.201343 }, "geometry": { "type": "LineString", "coordinates": [ [ 22.142490917910049, 45.213580367805726 ], [ 22.124626484649095, 45.200852146861102 ] ] } },
{ "type": "Feature", "properties": { "type": "lake-new", "rank": 80, "lake_id": 1356427, "lake_elevation_m": 303.0, "new_site_elevation_m": 407.5, "head_m": 104.5, "distance_m": 1974.9, "direction": "higher", "volume_million_m3": 0.84, "basin_volume_million_m3": 3.365, "empirical_volume_million_m3": 5.33, "lake_volume_million_m3": 0.84, "limited_by_existing_lake": true, "surface_area_km2": 0.2718, "storage_mwh": 203.4, "estimated_mw": 25.4, "score": 25.4266, "implied_flow_m3_s": 29.2, "flow_limited": false, "basin_bounded": false, "dam_start_lon": 23.811584, "dam_start_lat": 45.945259, "dam_end_lon": 23.81831, "dam_end_lat": 45.944979 }, "geometry": { "type": "LineString", "coordinates": [ [ 23.813987754120205, 45.962846927033922 ], [ 23.814947264884953, 45.945118706089296 ] ] } },
{ "type": "Feature", "properties": { "type": "lake-new", "rank": 81, "lake_id": 1353130, "lake_elevation_m": 29.6, "new_site_elevation_m": 143.9, "head_m": 114.3, "distance_m": 1975.1, "direction": "higher", "volume_million_m3": 0.753, "basin_volume_million_m3": 0.753, "empirical_volume_million_m3": 2.013, "lake_volume_million_m3": 1.21, "limited_by_existing_lake": false, "surface_area_km2": 0.0971, "storage_mwh": 199.5, "estimated_mw": 24.9, "score": 24.9424, "implied_flow_m3_s": 26.2, "flow_limited": false, "basin_bounded": false, "dam_start_lon": 28.148152, "dam_start_lat": 46.639179, "dam_end_lon": 28.152231, "dam_end_lat": 46.639152 }, "geometry": { "type": "LineString", "coordinates": [ [ 28.151228604464873, 46.656893858401638 ], [ 28.150191617070217, 46.639165637457012 ] ] } },
{ "type": "Feature", "properties": { "type": "lake-new", "rank": 82, "lake_id": 1359465, "lake_elevation_m": 462.2, "new_site_elevation_m": 578.4, "head_m": 116.2, "distance_m": 1390.7, "direction": "higher", "volume_million_m3": 0.74, "basin_volume_million_m3": 10.542, "empirical_volume_million_m3": 6.984, "lake_volume_million_m3": 0.74, "limited_by_existing_lake": true, "surface_area_km2": 0.3618, "storage_mwh": 199.2, "estimated_mw": 24.9, "score": 24.8938, "implied_flow_m3_s": 25.7, "flow_limited": false, "basin_bounded": false, "dam_start_lon": 24.646664, "dam_start_lat": 45.196822, "dam_end_lon": 24.646689, "dam_end_lat": 45.202225 }, "geometry": { "type": "LineString", "coordinates": [ [ 24.664257506412397, 45.201140480453134 ], [ 24.646676427749444, 45.199523370619616 ] ] } },
{ "type": "Feature", "properties": { "type": "lake-new", "rank": 83, "lake_id": 1350145, "lake_elevation_m": 69.5, "new_site_elevation_m": 179.7, "head_m": 110.2, "distance_m": 1700.5, "direction": "higher", "volume_million_m3": 0.78, "basin_volume_million_m3": 7.96, "empirical_volume_million_m3": 8.81, "lake_volume_million_m3": 0.78, "limited_by_existing_lake": true, "surface_area_km2": 0.4625, "storage_mwh": 199.0, "estimated_mw": 24.9, "score": 24.8791, "implied_flow_m3_s": 27.1, "flow_limited": false, "basin_bounded": false, "dam_start_lon": 27.41668, "dam_start_lat": 47.420176, "dam_end_lon": 27.424732, "dam_end_lat": 47.417411 }, "geometry": { "type": "LineString", "coordinates": [ [ 27.434347740467832, 47.430966160056705 ], [ 27.420705934470512, 47.418793494667632 ] ] } },
{ "type": "Feature", "properties": { "type": "lake-new", "rank": 84, "lake_id": 1347143, "lake_elevation_m": 151.0, "new_site_elevation_m": 257.9, "head_m": 106.9, "distance_m": 1272.4, "direction": "higher", "volume_million_m3": 0.75, "basin_volume_million_m3": 2.367, "empirical_volume_million_m3": 6.555, "lake_volume_million_m3": 0.75, "limited_by_existing_lake": true, "surface_area_km2": 0.3383, "storage_mwh": 185.6, "estimated_mw": 23.2, "score": 23.204, "implied_flow_m3_s": 26.0, "flow_limited": false, "basin_bounded": false, "dam_start_lon": 26.459889, "dam_start_lat": 48.122312, "dam_end_lon": 26.466801, "dam_end_lat": 48.11986 }, "geometry": { "type": "LineString", "coordinates": [ [ 26.446230153496696, 48.120758309804472 ], [ 26.463344774584847, 48.121085644415402 ] ] } },
{ "type": "Feature", "properties": { "type": "lake-new", "rank": 85, "lake_id": 1348536, "lake_elevation_m": 108.6, "new_site_elevation_m": 230.4, "head_m": 121.8, "distance_m": 1708.7, "direction": "higher", "volume_million_m3": 0.63, "basin_volume_million_m3": 1.625, "empirical_volume_million_m3": 5.729, "lake_volume_million_m3": 0.63, "limited_by_existing_lake": true, "surface_area_km2": 0.2934, "storage_mwh": 177.8, "estimated_mw": 22.2, "score": 22.2251, "implied_flow_m3_s": 21.9, "flow_limited": false, "basin_bounded": false, "dam_start_lon": 27.053138, "dam_start_lat": 47.826531, "dam_end_lon": 27.049029, "dam_end_lat": 47.822523 }, "geometry": { "type": "LineString", "coordinates": [ [ 27.029645485257834, 47.819199342275624 ], [ 27.051083467638062, 47.824526676886556 ] ] } },
{ "type": "Feature", "properties": { "type": "lake-new", "rank": 86, "lake_id": 1360496, "lake_elevation_m": -0.9, "new_site_elevation_m": 155.1, "head_m": 156.0, "distance_m": 1485.1, "direction": "higher", "volume_million_m3": 0.49, "basin_volume_million_m3": 0.681, "empirical_volume_million_m3": 2.537, "lake_volume_million_m3": 0.49, "limited_by_existing_lake": true, "surface_area_km2": 0.124, "storage_mwh": 177.1, "estimated_mw": 22.1, "score": 22.1321, "implied_flow_m3_s": 17.0, "flow_limited": false, "basin_bounded": false, "dam_start_lon": 28.843598, "dam_start_lat": 44.861152, "dam_end_lon": 28.843744, "dam_end_lat": 44.85799 }, "geometry": { "type": "LineString", "coordinates": [ [ 28.855271908971865, 44.870077021073598 ], [ 28.843671251547814, 44.859571022351197 ] ] } },
{ "type": "Feature", "properties": { "type": "lake-new", "rank": 87, "lake_id": 1360418, "lake_elevation_m": 148.5, "new_site_elevation_m": 251.8, "head_m": 103.3, "distance_m": 1583.7, "direction": "higher", "volume_million_m3": 0.63, "basin_volume_million_m3": 0.945, "empirical_volume_million_m3": 4.34, "lake_volume_million_m3": 0.63, "limited_by_existing_lake": true, "surface_area_km2": 0.2188, "storage_mwh": 150.7, "estimated_mw": 18.8, "score": 18.8349, "implied_flow_m3_s": 21.9, "flow_limited": false, "basin_bounded": false, "dam_start_lon": 23.206229, "dam_start_lat": 44.91194, "dam_end_lon": 23.212113, "dam_end_lat": 44.912471 }, "geometry": { "type": "LineString", "coordinates": [ [ 23.203561578351074, 44.898544722316089 ], [ 23.209170595202984, 44.912205390260354 ] ] } },
{ "type": "Feature", "properties": { "type": "lake-new", "rank": 88, "lake_id": 1351752, "lake_elevation_m": 184.5, "new_site_elevation_m": 330.2, "head_m": 145.7, "distance_m": 1529.5, "direction": "higher", "volume_million_m3": 0.44, "basin_volume_million_m3": 1.01, "empirical_volume_million_m3": 3.57, "lake_volume_million_m3": 0.44, "limited_by_existing_lake": true, "surface_area_km2": 0.178, "storage_mwh": 148.5, "estimated_mw": 18.6, "score": 18.5572, "implied_flow_m3_s": 15.3, "flow_limited": false, "basin_bounded": false, "dam_start_lon": 27.786251, "dam_start_lat": 47.031889, "dam_end_lon": 27.791781, "dam_end_lat": 47.032271 }, "geometry": { "type": "LineString", "coordinates": [ [ 27.779952457724136, 47.019808131401014 ], [ 27.789015853141802, 47.032079910456389 ] ] } },
{ "type": "Feature", "properties": { "type": "lake-new", "rank": 89, "lake_id": 1351077, "lake_elevation_m": 60.5, "new_site_elevation_m": 175.9, "head_m": 115.4, "distance_m": 1590.2, "direction": "higher", "volume_million_m3": 0.45, "basin_volume_million_m3": 11.66, "empirical_volume_million_m3": 10.873, "lake_volume_million_m3": 0.45, "limited_by_existing_lake": true, "surface_area_km2": 0.5777, "storage_mwh": 120.3, "estimated_mw": 15.0, "score": 15.0418, "implied_flow_m3_s": 15.6, "flow_limited": false, "basin_bounded": false, "dam_start_lon": 27.535441, "dam_start_lat": 47.203593, "dam_end_lon": 27.539939, "dam_end_lat": 47.197488 }, "geometry": { "type": "LineString", "coordinates": [ [ 27.52509908382925, 47.189101725420947 ], [ 27.537689649081347, 47.20054017114299 ] ] } },
{ "type": "Feature", "properties": { "type": "lake-new", "rank": 90, "lake_id": 1350066, "lake_elevation_m": 79.0, "new_site_elevation_m": 184.1, "head_m": 105.1, "distance_m": 1511.1, "direction": "higher", "volume_million_m3": 0.47, "basin_volume_million_m3": 0.801, "empirical_volume_million_m3": 2.826, "lake_volume_million_m3": 0.47, "limited_by_existing_lake": true, "surface_area_km2": 0.139, "storage_mwh": 114.4, "estimated_mw": 14.3, "score": 14.2972, "implied_flow_m3_s": 16.3, "flow_limited": false, "basin_bounded": false, "dam_start_lon": 27.391748, "dam_start_lat": 47.44856, "dam_end_lon": 27.387266, "dam_end_lat": 47.449986 }, "geometry": { "type": "LineString", "coordinates": [ [ 27.409547526511034, 47.450057038353613 ], [ 27.389507192723702, 47.449273261853435 ] ] } },
{ "type": "Feature", "properties": { "type": "lake-new", "rank": 91, "lake_id": 1352056, "lake_elevation_m": 338.5, "new_site_elevation_m": 451.7, "head_m": 113.2, "distance_m": 1990.3, "direction": "higher", "volume_million_m3": 0.41, "basin_volume_million_m3": 10.003, "empirical_volume_million_m3": 4.877, "lake_volume_million_m3": 0.41, "limited_by_existing_lake": true, "surface_area_km2": 0.2475, "storage_mwh": 107.5, "estimated_mw": 13.4, "score": 13.4436, "implied_flow_m3_s": 14.2, "flow_limited": false, "basin_bounded": true, "dam_start_lon": 24.467505, "dam_start_lat": 46.925497, "dam_end_lon": 24.469311, "dam_end_lat": 46.921202 }, "geometry": { "type": "LineString", "coordinates": [ [ 24.442351709692133, 46.921633053490631 ], [ 24.468407879248236, 46.92334927699045 ] ] } },
{ "type": "Feature", "properties": { "type": "lake-new", "rank": 92, "lake_id": 1353072, "lake_elevation_m": 306.8, "new_site_elevation_m": 409.2, "head_m": 102.4, "distance_m": 1989.0, "direction": "higher", "volume_million_m3": 0.36, "basin_volume_million_m3": 6.928, "empirical_volume_million_m3": 7.363, "lake_volume_million_m3": 0.36, "limited_by_existing_lake": true, "surface_area_km2": 0.3825, "storage_mwh": 85.4, "estimated_mw": 10.7, "score": 10.6708, "implied_flow_m3_s": 12.5, "flow_limited": false, "basin_bounded": false, "dam_start_lon": 24.181447, "dam_start_lat": 46.685151, "dam_end_lon": 24.173351, "dam_end_lat": 46.685109 }, "geometry": { "type": "LineString", "coordinates": [ [ 24.175663475657835, 46.667302678501038 ], [ 24.177399226012017, 46.685130013111966 ] ] } }
]
}
