{
"type": "FeatureCollection",
"name": "basins_natural",
"crs": { "type": "name", "properties": { "name": "urn:ogc:def:crs:OGC:1.3:CRS84" } },
"features": [
{ "type": "Feature", "properties": { "rank": 1, "lake_id": 1357337 }, "geometry": { "type": "Polygon", "coordinates": [ [ [ 23.908738048521794, 45.728636969285155 ], [ 23.908738048521794, 45.727803635951823 ], [ 23.907904715188462, 45.727803635951823 ], [ 23.907904715188462, 45.72752585817404 ], [ 23.907626937410683, 45.72752585817404 ], [ 23.907626937410683, 45.726692524840708 ], [ 23.907349159632904, 45.726692524840708 ], [ 23.907349159632904, 45.726414747062933 ], [ 23.906515826299572, 45.726414747062933 ], [ 23.906515826299572, 45.72613696928515 ], [ 23.905960270744018, 45.72613696928515 ], [ 23.905960270744018, 45.726414747062933 ], [ 23.905126937410682, 45.726414747062933 ], [ 23.905126937410682, 45.726692524840708 ], [ 23.904571381855128, 45.726692524840708 ], [ 23.904571381855128, 45.726970302618483 ], [ 23.904293604077349, 45.726970302618483 ], [ 23.904293604077349, 45.727248080396265 ], [ 23.90401582629957, 45.727248080396265 ], [ 23.90401582629957, 45.728081413729598 ], [ 23.903460270744016, 45.728081413729598 ], [ 23.903460270744016, 45.727803635951823 ], [ 23.903182492966238, 45.727803635951823 ], [ 23.903182492966238, 45.72752585817404 ], [ 23.902904715188459, 45.72752585817404 ], [ 23.902904715188459, 45.726970302618483 ], [ 23.901793604077348, 45.726970302618483 ], [ 23.901793604077348, 45.727248080396265 ], [ 23.900960270744015, 45.727248080396265 ], [ 23.900960270744015, 45.72752585817404 ], [ 23.899849159632904, 45.72752585817404 ], [ 23.899849159632904, 45.726970302618483 ], [ 23.899571381855129, 45.726970302618483 ], [ 23.899571381855129, 45.726692524840708 ], [ 23.89929360407735, 45.726692524840708 ], [ 23.89929360407735, 45.72613696928515 ], [ 23.899849159632904, 45.72613696928515 ], [ 23.899849159632904, 45.725859191507375 ], [ 23.900404715188461, 45.725859191507375 ], [ 23.900404715188461, 45.7255814137296 ], [ 23.900960270744015, 45.7255814137296 ], [ 23.900960270744015, 45.725303635951818 ], [ 23.901238048521794, 45.725303635951818 ], [ 23.901238048521794, 45.724470302618485 ], [ 23.90068249296624, 45.724470302618485 ], [ 23.90068249296624, 45.72419252484071 ], [ 23.900126937410683, 45.72419252484071 ], [ 23.900126937410683, 45.723914747062928 ], [ 23.899849159632904, 45.723914747062928 ], [ 23.899849159632904, 45.723636969285153 ], [ 23.90068249296624, 45.723636969285153 ], [ 23.90068249296624, 45.723914747062928 ], [ 23.901515826299573, 45.723914747062928 ], [ 23.901515826299573, 45.72419252484071 ], [ 23.902349159632905, 45.72419252484071 ], [ 23.902349159632905, 45.724470302618485 ], [ 23.902904715188459, 45.724470302618485 ], [ 23.902904715188459, 45.72474808039626 ], [ 23.90401582629957, 45.72474808039626 ], [ 23.90401582629957, 45.724470302618485 ], [ 23.904571381855128, 45.724470302618485 ], [ 23.904571381855128, 45.72419252484071 ], [ 23.90540471518846, 45.72419252484071 ], [ 23.90540471518846, 45.723914747062928 ], [ 23.905682492966239, 45.723914747062928 ], [ 23.905682492966239, 45.723081413729595 ], [ 23.905960270744018, 45.723081413729595 ], [ 23.905960270744018, 45.72280363595182 ], [ 23.906515826299572, 45.72280363595182 ], [ 23.906515826299572, 45.723081413729595 ], [ 23.90679360407735, 45.723081413729595 ], [ 23.90679360407735, 45.723914747062928 ], [ 23.907071381855125, 45.723914747062928 ], [ 23.907071381855125, 45.724470302618485 ], [ 23.907626937410683, 45.724470302618485 ], [ 23.907626937410683, 45.72474808039626 ], [ 23.908460270744015, 45.72474808039626 ], [ 23.908460270744015, 45.725025858174043 ], [ 23.909015826299573, 45.725025858174043 ], [ 23.909015826299573, 45.725303635951818 ], [ 23.909571381855127, 45.725303635951818 ], [ 23.909571381855127, 45.7255814137296 ], [ 23.909849159632905, 45.7255814137296 ], [ 23.909849159632905, 45.725303635951818 ], [ 23.911515826299571, 45.725303635951818 ], [ 23.911515826299571, 45.725025858174043 ], [ 23.912071381855128, 45.725025858174043 ], [ 23.912071381855128, 45.7255814137296 ], [ 23.911793604077349, 45.7255814137296 ], [ 23.911793604077349, 45.726692524840708 ], [ 23.911238048521795, 45.726692524840708 ], [ 23.911238048521795, 45.726414747062933 ], [ 23.909571381855127, 45.726414747062933 ], [ 23.909571381855127, 45.72613696928515 ], [ 23.908738048521794, 45.72613696928515 ], [ 23.908738048521794, 45.726414747062933 ], [ 23.909015826299573, 45.726414747062933 ], [ 23.909015826299573, 45.726692524840708 ], [ 23.909571381855127, 45.726692524840708 ], [ 23.909571381855127, 45.726970302618483 ], [ 23.910126937410684, 45.726970302618483 ], [ 23.910126937410684, 45.727248080396265 ], [ 23.910960270744017, 45.727248080396265 ], [ 23.910960270744017, 45.727803635951823 ], [ 23.910682492966238, 45.727803635951823 ], [ 23.910682492966238, 45.728081413729598 ], [ 23.910126937410684, 45.728081413729598 ], [ 23.910126937410684, 45.728359191507373 ], [ 23.909293604077348, 45.728359191507373 ], [ 23.909293604077348, 45.728636969285155 ], [ 23.908738048521794, 45.728636969285155 ] ], [ [ 23.908460270744015, 45.72613696928515 ], [ 23.908738048521794, 45.72613696928515 ], [ 23.908738048521794, 45.725859191507375 ], [ 23.908460270744015, 45.725859191507375 ], [ 23.908460270744015, 45.72613696928515 ] ] ] } },
{ "type": "Feature", "properties": { "rank": 2, "lake_id": 170943 }, "geometry": { "type": "Polygon", "coordinates": [ [ [ 24.397379938947015, 45.219956278095857 ], [ 24.397379938947015, 45.219678500318075 ], [ 24.396824383391461, 45.219678500318075 ], [ 24.396824383391461, 45.2194007225403 ], [ 24.396546605613683, 45.2194007225403 ], [ 24.396546605613683, 45.219122944762525 ], [ 24.394602161169239, 45.219122944762525 ], [ 24.394602161169239, 45.2194007225403 ], [ 24.393491050058127, 45.2194007225403 ], [ 24.393491050058127, 45.219122944762525 ], [ 24.38821327228035, 45.219122944762525 ], [ 24.38821327228035, 45.218845166984742 ], [ 24.38682438339146, 45.218845166984742 ], [ 24.38682438339146, 45.218567389206967 ], [ 24.386546605613681, 45.218567389206967 ], [ 24.386546605613681, 45.218289611429185 ], [ 24.386268827835906, 45.218289611429185 ], [ 24.386268827835906, 45.217178500318077 ], [ 24.386546605613681, 45.217178500318077 ], [ 24.386546605613681, 45.21662294476252 ], [ 24.38682438339146, 45.21662294476252 ], [ 24.38682438339146, 45.216900722540302 ], [ 24.387379938947017, 45.216900722540302 ], [ 24.387379938947017, 45.217178500318077 ], [ 24.387657716724792, 45.217178500318077 ], [ 24.387657716724792, 45.217456278095852 ], [ 24.38821327228035, 45.217456278095852 ], [ 24.38821327228035, 45.217734055873635 ], [ 24.389046605613682, 45.217734055873635 ], [ 24.389046605613682, 45.217456278095852 ], [ 24.388768827835904, 45.217456278095852 ], [ 24.388768827835904, 45.217178500318077 ], [ 24.388491050058128, 45.217178500318077 ], [ 24.388491050058128, 45.216900722540302 ], [ 24.387935494502571, 45.216900722540302 ], [ 24.387935494502571, 45.216345166984745 ], [ 24.387379938947017, 45.216345166984745 ], [ 24.387379938947017, 45.216067389206962 ], [ 24.387102161169238, 45.216067389206962 ], [ 24.387102161169238, 45.215789611429187 ], [ 24.387379938947017, 45.215789611429187 ], [ 24.387379938947017, 45.215511833651412 ], [ 24.387935494502571, 45.215511833651412 ], [ 24.387935494502571, 45.21523405587363 ], [ 24.38821327228035, 45.21523405587363 ], [ 24.38821327228035, 45.214956278095855 ], [ 24.388768827835904, 45.214956278095855 ], [ 24.388768827835904, 45.21467850031808 ], [ 24.389324383391461, 45.21467850031808 ], [ 24.389324383391461, 45.214400722540297 ], [ 24.390157716724794, 45.214400722540297 ], [ 24.390157716724794, 45.214122944762522 ], [ 24.391546605613684, 45.214122944762522 ], [ 24.391546605613684, 45.21384516698474 ], [ 24.393491050058127, 45.21384516698474 ], [ 24.393491050058127, 45.214122944762522 ], [ 24.394879938947017, 45.214122944762522 ], [ 24.394879938947017, 45.214400722540297 ], [ 24.39571327228035, 45.214400722540297 ], [ 24.39571327228035, 45.21467850031808 ], [ 24.396268827835904, 45.21467850031808 ], [ 24.396268827835904, 45.214956278095855 ], [ 24.396824383391461, 45.214956278095855 ], [ 24.396824383391461, 45.21523405587363 ], [ 24.396546605613683, 45.21523405587363 ], [ 24.396546605613683, 45.215511833651412 ], [ 24.395991050058129, 45.215511833651412 ], [ 24.395991050058129, 45.215789611429187 ], [ 24.393768827835906, 45.215789611429187 ], [ 24.393768827835906, 45.215511833651412 ], [ 24.392657716724795, 45.215511833651412 ], [ 24.392657716724795, 45.21523405587363 ], [ 24.392102161169237, 45.21523405587363 ], [ 24.392102161169237, 45.214956278095855 ], [ 24.391268827835905, 45.214956278095855 ], [ 24.391268827835905, 45.21467850031808 ], [ 24.390991050058126, 45.21467850031808 ], [ 24.390991050058126, 45.214956278095855 ], [ 24.38960216116924, 45.214956278095855 ], [ 24.38960216116924, 45.215511833651412 ], [ 24.389324383391461, 45.215511833651412 ], [ 24.389324383391461, 45.216345166984745 ], [ 24.389879938947015, 45.216345166984745 ], [ 24.389879938947015, 45.21662294476252 ], [ 24.390435494502572, 45.21662294476252 ], [ 24.390435494502572, 45.216900722540302 ], [ 24.390713272280351, 45.216900722540302 ], [ 24.390713272280351, 45.217178500318077 ], [ 24.391546605613684, 45.217178500318077 ], [ 24.391546605613684, 45.217456278095852 ], [ 24.392379938947016, 45.217456278095852 ], [ 24.392379938947016, 45.217734055873635 ], [ 24.393213272280349, 45.217734055873635 ], [ 24.393213272280349, 45.21801183365141 ], [ 24.394602161169239, 45.21801183365141 ], [ 24.394602161169239, 45.217734055873635 ], [ 24.396268827835904, 45.217734055873635 ], [ 24.396268827835904, 45.217456278095852 ], [ 24.39710216116924, 45.217456278095852 ], [ 24.39710216116924, 45.21801183365141 ], [ 24.397379938947015, 45.21801183365141 ], [ 24.397379938947015, 45.218289611429185 ], [ 24.398213272280348, 45.218289611429185 ], [ 24.398213272280348, 45.218567389206967 ], [ 24.398491050058126, 45.218567389206967 ], [ 24.398491050058126, 45.218845166984742 ], [ 24.398768827835905, 45.218845166984742 ], [ 24.398768827835905, 45.219678500318075 ], [ 24.397657716724794, 45.219678500318075 ], [ 24.397657716724794, 45.219956278095857 ], [ 24.397379938947015, 45.219956278095857 ] ], [ [ 24.389046605613682, 45.21801183365141 ], [ 24.389324383391461, 45.21801183365141 ], [ 24.389324383391461, 45.217734055873635 ], [ 24.389046605613682, 45.217734055873635 ], [ 24.389046605613682, 45.21801183365141 ] ] ] } },
{ "type": "Feature", "properties": { "rank": 3, "lake_id": 1356686 }, "geometry": { "type": "Polygon", "coordinates": [ [ [ 22.872027642235853, 45.915400478399754 ], [ 22.872027642235853, 45.915122700621971 ], [ 22.870638753346963, 45.915122700621971 ], [ 22.870638753346963, 45.914844922844196 ], [ 22.86980542001363, 45.914844922844196 ], [ 22.86980542001363, 45.914567145066421 ], [ 22.869249864458073, 45.914567145066421 ], [ 22.869249864458073, 45.914289367288639 ], [ 22.868694308902519, 45.914289367288639 ], [ 22.868694308902519, 45.914011589510864 ], [ 22.868138753346962, 45.914011589510864 ], [ 22.868138753346962, 45.913733811733088 ], [ 22.867860975569187, 45.913733811733088 ], [ 22.867860975569187, 45.913456033955306 ], [ 22.867583197791408, 45.913456033955306 ], [ 22.867583197791408, 45.913178256177531 ], [ 22.867305420013629, 45.913178256177531 ], [ 22.867305420013629, 45.912622700621974 ], [ 22.86702764223585, 45.912622700621974 ], [ 22.86702764223585, 45.912344922844198 ], [ 22.866749864458075, 45.912344922844198 ], [ 22.866749864458075, 45.911511589510866 ], [ 22.866472086680297, 45.911511589510866 ], [ 22.866472086680297, 45.910122700621976 ], [ 22.866749864458075, 45.910122700621976 ], [ 22.866749864458075, 45.909289367288643 ], [ 22.86702764223585, 45.909289367288643 ], [ 22.86702764223585, 45.909011589510861 ], [ 22.867305420013629, 45.909011589510861 ], [ 22.867305420013629, 45.908456033955311 ], [ 22.867583197791408, 45.908456033955311 ], [ 22.867583197791408, 45.908178256177528 ], [ 22.867860975569187, 45.908178256177528 ], [ 22.867860975569187, 45.907900478399753 ], [ 22.868138753346962, 45.907900478399753 ], [ 22.868138753346962, 45.907622700621971 ], [ 22.868694308902519, 45.907622700621971 ], [ 22.868694308902519, 45.907344922844196 ], [ 22.869249864458073, 45.907344922844196 ], [ 22.869249864458073, 45.907067145066421 ], [ 22.86980542001363, 45.907067145066421 ], [ 22.86980542001363, 45.906789367288638 ], [ 22.870638753346963, 45.906789367288638 ], [ 22.870638753346963, 45.906511589510863 ], [ 22.872027642235853, 45.906511589510863 ], [ 22.872027642235853, 45.906233811733088 ], [ 22.873972086680297, 45.906233811733088 ], [ 22.873972086680297, 45.906511589510863 ], [ 22.875360975569187, 45.906511589510863 ], [ 22.875360975569187, 45.906789367288638 ], [ 22.876194308902519, 45.906789367288638 ], [ 22.876194308902519, 45.907067145066421 ], [ 22.876749864458073, 45.907067145066421 ], [ 22.876749864458073, 45.907344922844196 ], [ 22.877305420013631, 45.907344922844196 ], [ 22.877305420013631, 45.907622700621971 ], [ 22.877860975569185, 45.907622700621971 ], [ 22.877860975569185, 45.907900478399753 ], [ 22.878138753346963, 45.907900478399753 ], [ 22.878138753346963, 45.908178256177528 ], [ 22.878416531124742, 45.908178256177528 ], [ 22.878416531124742, 45.908456033955311 ], [ 22.878694308902517, 45.908456033955311 ], [ 22.878694308902517, 45.909011589510861 ], [ 22.878972086680296, 45.909011589510861 ], [ 22.878972086680296, 45.909289367288643 ], [ 22.879249864458075, 45.909289367288643 ], [ 22.879249864458075, 45.910122700621976 ], [ 22.879527642235853, 45.910122700621976 ], [ 22.879527642235853, 45.911511589510866 ], [ 22.879249864458075, 45.911511589510866 ], [ 22.879249864458075, 45.912344922844198 ], [ 22.878972086680296, 45.912344922844198 ], [ 22.878972086680296, 45.912622700621974 ], [ 22.878694308902517, 45.912622700621974 ], [ 22.878694308902517, 45.913178256177531 ], [ 22.878416531124742, 45.913178256177531 ], [ 22.878416531124742, 45.913456033955306 ], [ 22.878138753346963, 45.913456033955306 ], [ 22.878138753346963, 45.913733811733088 ], [ 22.877860975569185, 45.913733811733088 ], [ 22.877860975569185, 45.914011589510864 ], [ 22.877305420013631, 45.914011589510864 ], [ 22.877305420013631, 45.914289367288639 ], [ 22.876749864458073, 45.914289367288639 ], [ 22.876749864458073, 45.914567145066421 ], [ 22.876194308902519, 45.914567145066421 ], [ 22.876194308902519, 45.914844922844196 ], [ 22.875360975569187, 45.914844922844196 ], [ 22.875360975569187, 45.915122700621971 ], [ 22.873972086680297, 45.915122700621971 ], [ 22.873972086680297, 45.915400478399754 ], [ 22.872027642235853, 45.915400478399754 ] ] ] } },
{ "type": "Feature", "properties": { "rank": 4, "lake_id": 1355556 }, "geometry": { "type": "Polygon", "coordinates": [ [ [ 25.908573848595768, 46.136594868590308 ], [ 25.908573848595768, 46.136317090812533 ], [ 25.907184959706882, 46.136317090812533 ], [ 25.907184959706882, 46.13603931303475 ], [ 25.906351626373549, 46.13603931303475 ], [ 25.906351626373549, 46.135761535256975 ], [ 25.905796070817992, 46.135761535256975 ], [ 25.905796070817992, 46.135483757479193 ], [ 25.905240515262438, 46.135483757479193 ], [ 25.905240515262438, 46.135205979701418 ], [ 25.904684959706881, 46.135205979701418 ], [ 25.904684959706881, 46.134928201923643 ], [ 25.904407181929102, 46.134928201923643 ], [ 25.904407181929102, 46.13465042414586 ], [ 25.904129404151327, 46.13465042414586 ], [ 25.904129404151327, 46.134372646368085 ], [ 25.903851626373548, 46.134372646368085 ], [ 25.903851626373548, 46.13409486859031 ], [ 25.903573848595769, 46.13409486859031 ], [ 25.903573848595769, 46.133539313034753 ], [ 25.903296070817991, 46.133539313034753 ], [ 25.903296070817991, 46.13270597970142 ], [ 25.903018293040216, 46.13270597970142 ], [ 25.903018293040216, 46.13131709081253 ], [ 25.903296070817991, 46.13131709081253 ], [ 25.903296070817991, 46.130483757479197 ], [ 25.903573848595769, 46.130483757479197 ], [ 25.903573848595769, 46.12992820192364 ], [ 25.903851626373548, 46.12992820192364 ], [ 25.903851626373548, 46.129650424145865 ], [ 25.904129404151327, 46.129650424145865 ], [ 25.904129404151327, 46.129372646368083 ], [ 25.904407181929102, 46.129372646368083 ], [ 25.904407181929102, 46.129094868590307 ], [ 25.904684959706881, 46.129094868590307 ], [ 25.904684959706881, 46.128817090812532 ], [ 25.905240515262438, 46.128817090812532 ], [ 25.905240515262438, 46.12853931303475 ], [ 25.905796070817992, 46.12853931303475 ], [ 25.905796070817992, 46.128261535256975 ], [ 25.906351626373549, 46.128261535256975 ], [ 25.906351626373549, 46.127983757479193 ], [ 25.907184959706882, 46.127983757479193 ], [ 25.907184959706882, 46.127705979701418 ], [ 25.908573848595768, 46.127705979701418 ], [ 25.908573848595768, 46.127428201923642 ], [ 25.909962737484658, 46.127428201923642 ], [ 25.909962737484658, 46.127705979701418 ], [ 25.910518293040216, 46.127705979701418 ], [ 25.910518293040216, 46.128261535256975 ], [ 25.910796070817991, 46.128261535256975 ], [ 25.910796070817991, 46.128817090812532 ], [ 25.911351626373548, 46.128817090812532 ], [ 25.911351626373548, 46.129094868590307 ], [ 25.911907181929102, 46.129094868590307 ], [ 25.911907181929102, 46.129372646368083 ], [ 25.912184959706881, 46.129372646368083 ], [ 25.912184959706881, 46.129650424145865 ], [ 25.911907181929102, 46.129650424145865 ], [ 25.911907181929102, 46.131872646368087 ], [ 25.912184959706881, 46.131872646368087 ], [ 25.912184959706881, 46.132150424145863 ], [ 25.91246273748466, 46.132150424145863 ], [ 25.91246273748466, 46.132428201923638 ], [ 25.912740515262438, 46.132428201923638 ], [ 25.912740515262438, 46.132983757479195 ], [ 25.913851626373546, 46.132983757479195 ], [ 25.913851626373546, 46.132428201923638 ], [ 25.914129404151325, 46.132428201923638 ], [ 25.914129404151325, 46.131872646368087 ], [ 25.914407181929104, 46.131872646368087 ], [ 25.914407181929104, 46.13131709081253 ], [ 25.914684959706882, 46.13131709081253 ], [ 25.914684959706882, 46.130761535256973 ], [ 25.914407181929104, 46.130761535256973 ], [ 25.914407181929104, 46.130205979701415 ], [ 25.914129404151325, 46.130205979701415 ], [ 25.914129404151325, 46.12992820192364 ], [ 25.913851626373546, 46.12992820192364 ], [ 25.913851626373546, 46.128817090812532 ], [ 25.914407181929104, 46.128817090812532 ], [ 25.914407181929104, 46.129094868590307 ], [ 25.914684959706882, 46.129094868590307 ], [ 25.914684959706882, 46.129372646368083 ], [ 25.914962737484657, 46.129372646368083 ], [ 25.914962737484657, 46.129650424145865 ], [ 25.915240515262436, 46.129650424145865 ], [ 25.915240515262436, 46.12992820192364 ], [ 25.915518293040215, 46.12992820192364 ], [ 25.915518293040215, 46.130483757479197 ], [ 25.915796070817994, 46.130483757479197 ], [ 25.915796070817994, 46.13131709081253 ], [ 25.916073848595769, 46.13131709081253 ], [ 25.916073848595769, 46.13270597970142 ], [ 25.915796070817994, 46.13270597970142 ], [ 25.915796070817994, 46.133539313034753 ], [ 25.915518293040215, 46.133539313034753 ], [ 25.915518293040215, 46.13409486859031 ], [ 25.915240515262436, 46.13409486859031 ], [ 25.915240515262436, 46.134372646368085 ], [ 25.914962737484657, 46.134372646368085 ], [ 25.914962737484657, 46.13465042414586 ], [ 25.914684959706882, 46.13465042414586 ], [ 25.914684959706882, 46.134928201923643 ], [ 25.914407181929104, 46.134928201923643 ], [ 25.914407181929104, 46.135205979701418 ], [ 25.913851626373546, 46.135205979701418 ], [ 25.913851626373546, 46.135483757479193 ], [ 25.913296070817992, 46.135483757479193 ], [ 25.913296070817992, 46.135761535256975 ], [ 25.912740515262438, 46.135761535256975 ], [ 25.912740515262438, 46.13603931303475 ], [ 25.911629404151327, 46.13603931303475 ], [ 25.911629404151327, 46.135761535256975 ], [ 25.911351626373548, 46.135761535256975 ], [ 25.911351626373548, 46.13603931303475 ], [ 25.91107384859577, 46.13603931303475 ], [ 25.91107384859577, 46.136317090812533 ], [ 25.909407181929105, 46.136317090812533 ], [ 25.909407181929105, 46.136594868590308 ], [ 25.908573848595768, 46.136594868590308 ] ] ] } },
{ "type": "Feature", "properties": { "rank": 5, "lake_id": 1359758 }, "geometry": { "type": "Polygon", "coordinates": [ [ [ 22.827765588630161, 45.137885694328524 ], [ 22.827765588630161, 45.137607916550749 ], [ 22.827210033074604, 45.137607916550749 ], [ 22.827210033074604, 45.137052360995192 ], [ 22.82665447751905, 45.137052360995192 ], [ 22.82665447751905, 45.136774583217409 ], [ 22.826376699741271, 45.136774583217409 ], [ 22.826376699741271, 45.136496805439634 ], [ 22.825543366407938, 45.136496805439634 ], [ 22.825543366407938, 45.136219027661859 ], [ 22.823321144185716, 45.136219027661859 ], [ 22.823321144185716, 45.135941249884077 ], [ 22.822210033074604, 45.135941249884077 ], [ 22.822210033074604, 45.135663472106302 ], [ 22.821654477519051, 45.135663472106302 ], [ 22.821654477519051, 45.135385694328527 ], [ 22.821098921963493, 45.135385694328527 ], [ 22.821098921963493, 45.135107916550744 ], [ 22.820821144185715, 45.135107916550744 ], [ 22.820821144185715, 45.134830138772969 ], [ 22.821098921963493, 45.134830138772969 ], [ 22.821098921963493, 45.134274583217412 ], [ 22.821376699741272, 45.134274583217412 ], [ 22.821376699741272, 45.134552360995187 ], [ 22.821654477519051, 45.134552360995187 ], [ 22.821654477519051, 45.134830138772969 ], [ 22.822210033074604, 45.134830138772969 ], [ 22.822210033074604, 45.135107916550744 ], [ 22.822765588630162, 45.135107916550744 ], [ 22.822765588630162, 45.135385694328527 ], [ 22.824154477519048, 45.135385694328527 ], [ 22.824154477519048, 45.135107916550744 ], [ 22.823321144185716, 45.135107916550744 ], [ 22.823321144185716, 45.134830138772969 ], [ 22.822765588630162, 45.134830138772969 ], [ 22.822765588630162, 45.134552360995187 ], [ 22.822487810852383, 45.134552360995187 ], [ 22.822487810852383, 45.134274583217412 ], [ 22.822210033074604, 45.134274583217412 ], [ 22.822210033074604, 45.133996805439637 ], [ 22.821932255296826, 45.133996805439637 ], [ 22.821932255296826, 45.133163472106304 ], [ 22.822487810852383, 45.133163472106304 ], [ 22.822487810852383, 45.132885694328522 ], [ 22.822765588630162, 45.132885694328522 ], [ 22.822765588630162, 45.132607916550747 ], [ 22.823321144185716, 45.132607916550747 ], [ 22.823321144185716, 45.132330138772971 ], [ 22.823876699741273, 45.132330138772971 ], [ 22.823876699741273, 45.132052360995189 ], [ 22.824710033074606, 45.132052360995189 ], [ 22.824710033074606, 45.131774583217414 ], [ 22.824987810852384, 45.131774583217414 ], [ 22.824987810852384, 45.132052360995189 ], [ 22.826376699741271, 45.132052360995189 ], [ 22.826376699741271, 45.132330138772971 ], [ 22.827210033074604, 45.132330138772971 ], [ 22.827210033074604, 45.132052360995189 ], [ 22.827765588630161, 45.132052360995189 ], [ 22.827765588630161, 45.132330138772971 ], [ 22.82804336640794, 45.132330138772971 ], [ 22.82804336640794, 45.132607916550747 ], [ 22.829154477519051, 45.132607916550747 ], [ 22.829154477519051, 45.132885694328522 ], [ 22.829710033074605, 45.132885694328522 ], [ 22.829710033074605, 45.132607916550747 ], [ 22.831098921963495, 45.132607916550747 ], [ 22.831098921963495, 45.132885694328522 ], [ 22.831654477519049, 45.132885694328522 ], [ 22.831654477519049, 45.133163472106304 ], [ 22.832210033074606, 45.133163472106304 ], [ 22.832210033074606, 45.133441249884079 ], [ 22.832487810852381, 45.133441249884079 ], [ 22.832487810852381, 45.133719027661854 ], [ 22.831932255296827, 45.133719027661854 ], [ 22.831932255296827, 45.133996805439637 ], [ 22.831654477519049, 45.133996805439637 ], [ 22.831654477519049, 45.134274583217412 ], [ 22.83137669974127, 45.134274583217412 ], [ 22.83137669974127, 45.134552360995187 ], [ 22.831098921963495, 45.134552360995187 ], [ 22.831098921963495, 45.134274583217412 ], [ 22.830543366407937, 45.134274583217412 ], [ 22.830543366407937, 45.134552360995187 ], [ 22.830265588630162, 45.134552360995187 ], [ 22.830265588630162, 45.134830138772969 ], [ 22.829987810852383, 45.134830138772969 ], [ 22.829987810852383, 45.135107916550744 ], [ 22.829710033074605, 45.135107916550744 ], [ 22.829710033074605, 45.135385694328527 ], [ 22.829154477519051, 45.135385694328527 ], [ 22.829154477519051, 45.135663472106302 ], [ 22.828876699741272, 45.135663472106302 ], [ 22.828876699741272, 45.136496805439634 ], [ 22.829154477519051, 45.136496805439634 ], [ 22.829154477519051, 45.136774583217409 ], [ 22.828876699741272, 45.136774583217409 ], [ 22.828876699741272, 45.137052360995192 ], [ 22.828321144185715, 45.137052360995192 ], [ 22.828321144185715, 45.137607916550749 ], [ 22.82804336640794, 45.137607916550749 ], [ 22.82804336640794, 45.137885694328524 ], [ 22.827765588630161, 45.137885694328524 ] ], [ [ 22.824987810852384, 45.134552360995187 ], [ 22.826098921963492, 45.134552360995187 ], [ 22.826098921963492, 45.133996805439637 ], [ 22.826376699741271, 45.133996805439637 ], [ 22.826376699741271, 45.133719027661854 ], [ 22.824432255296827, 45.133719027661854 ], [ 22.824432255296827, 45.133441249884079 ], [ 22.824154477519048, 45.133441249884079 ], [ 22.824154477519048, 45.133163472106304 ], [ 22.823321144185716, 45.133163472106304 ], [ 22.823321144185716, 45.133441249884079 ], [ 22.823876699741273, 45.133441249884079 ], [ 22.823876699741273, 45.134274583217412 ], [ 22.824987810852384, 45.134274583217412 ], [ 22.824987810852384, 45.134552360995187 ] ] ] } }
]
}
