{
"type": "FeatureCollection",
"name": "candidates_engineered",
"crs": { "type": "name", "properties": { "name": "urn:ogc:def:crs:OGC:1.3:CRS84" } },
"features": [
{ "type": "Feature", "properties": { "type": "lake-new", "rank": 1, "lake_id": 1360316, "lake_elevation_m": 231.0, "new_site_elevation_m": 900.2, "new_site_water_level_m": 1000.1, "head_m": 769.1, "distance_m": 1367.4, "direction": "higher", "volume_million_m3": 7.9, "basin_volume_million_m3": 136.613, "empirical_volume_million_m3": 51.833, "lake_volume_million_m3": 15.8, "limited_by_existing_lake": true, "surface_area_km2": 3.0113, "storage_mwh": 14073.8, "estimated_mw": 1082.6, "score": 1082.6029, "implied_flow_m3_s": 168.8, "flow_limited": false, "basin_bounded": true, "wall_fraction": 0.607, "unrealistic_dam_length_m": null, "flat_fraction": null, "site_lake_id": null, "dam_start_lon": null, "dam_start_lat": null, "dam_end_lon": null, "dam_end_lat": null, "dam_height_m": null, "dam_length_m": null, "concrete_volume_m3": null }, "geometry": { "type": "LineString", "coordinates": [ [ 22.459219129732748, 44.937792400784815 ], [ 22.47176666372642, 44.929307202956736 ] ] } },
{ "type": "Feature", "properties": { "type": "lake-new", "rank": 2, "lake_id": 1361871, "lake_elevation_m": 10.5, "new_site_elevation_m": 132.0, "new_site_water_level_m": 137.9, "head_m": 127.4, "distance_m": 1540.7, "direction": "higher", "volume_million_m3": 2.255, "basin_volume_million_m3": 12.097, "empirical_volume_million_m3": 43.455, "lake_volume_million_m3": 4.51, "limited_by_existing_lake": true, "surface_area_km2": 2.4992, "storage_mwh": 665.2, "estimated_mw": 51.2, "score": 51.1729, "implied_flow_m3_s": 48.2, "flow_limited": false, "basin_bounded": false, "wall_fraction": 0.909, "unrealistic_dam_length_m": null, "flat_fraction": null, "site_lake_id": null, "dam_start_lon": null, "dam_start_lat": null, "dam_end_lon": null, "dam_end_lat": null, "dam_height_m": null, "dam_length_m": null, "concrete_volume_m3": null }, "geometry": { "type": "LineString", "coordinates": [ [ 27.645148338343493, 44.105022820366742 ], [ 27.65691934939321, 44.115982066983101 ] ] } }
]
}
