{
"type": "FeatureCollection",
"name": "candidates_watershed",
"crs": { "type": "name", "properties": { "name": "urn:ogc:def:crs:OGC:1.3:CRS84" } },
"features": [
{ "type": "Feature", "properties": { "type": "lake-new", "rank": 1, "lake_id": 1352457, "lake_elevation_m": 553.5, "new_site_elevation_m": 841.0, "new_site_water_level_m": 883.9, "head_m": 330.4, "distance_m": 2333.2, "direction": "higher", "volume_million_m3": 4.34, "basin_volume_million_m3": 9.32, "empirical_volume_million_m3": 10.231, "lake_volume_million_m3": 8.68, "limited_by_existing_lake": true, "surface_area_km2": 0.5417, "storage_mwh": 3321.4, "estimated_mw": 255.5, "score": 255.4919, "lh_ratio": 7.06, "lh_rank": 2, "implied_flow_m3_s": 92.7, "flow_limited": false, "basin_bounded": true, "wall_fraction": null, "unrealistic_dam_length_m": null, "flat_fraction": null, "site_lake_id": null, "dam_start_lon": null, "dam_start_lat": null, "dam_end_lon": null, "dam_end_lat": null, "dam_height_m": null, "dam_length_m": null, "concrete_volume_m3": null }, "geometry": { "type": "LineString", "coordinates": [ [ 22.571578063977327, 46.801467827691397 ], [ 22.546111111111113, 46.8125 ] ] } },
{ "type": "Feature", "properties": { "type": "lake-new", "rank": 2, "lake_id": 1360316, "lake_elevation_m": 231.0, "new_site_elevation_m": 940.5, "new_site_water_level_m": 950.6, "head_m": 719.6, "distance_m": 2349.9, "direction": "higher", "volume_million_m3": 0.377, "basin_volume_million_m3": 0.377, "empirical_volume_million_m3": 1.699, "lake_volume_million_m3": 15.8, "limited_by_existing_lake": false, "surface_area_km2": 0.0812, "storage_mwh": 628.3, "estimated_mw": 48.3, "score": 48.3278, "lh_ratio": 3.27, "lh_rank": 1, "implied_flow_m3_s": 8.1, "flow_limited": false, "basin_bounded": true, "wall_fraction": null, "unrealistic_dam_length_m": null, "flat_fraction": null, "site_lake_id": null, "dam_start_lon": null, "dam_start_lat": null, "dam_end_lon": null, "dam_end_lat": null, "dam_height_m": null, "dam_length_m": null, "concrete_volume_m3": null }, "geometry": { "type": "LineString", "coordinates": [ [ 22.459219129732748, 44.937792400784815 ], [ 22.486944444444447, 44.946111111111115 ] ] } },
{ "type": "Feature", "properties": { "type": "lake-new", "rank": 3, "lake_id": 1361045, "lake_elevation_m": 65.0, "new_site_elevation_m": 236.3, "new_site_water_level_m": 268.4, "head_m": 203.4, "distance_m": 2547.2, "direction": "higher", "volume_million_m3": 0.915, "basin_volume_million_m3": 2.987, "empirical_volume_million_m3": 4.496, "lake_volume_million_m3": 1.83, "limited_by_existing_lake": true, "surface_area_km2": 0.2271, "storage_mwh": 431.1, "estimated_mw": 33.2, "score": 33.1648, "lh_ratio": 12.52, "lh_rank": 4, "implied_flow_m3_s": 19.6, "flow_limited": false, "basin_bounded": true, "wall_fraction": null, "unrealistic_dam_length_m": null, "flat_fraction": null, "site_lake_id": null, "dam_start_lon": null, "dam_start_lat": null, "dam_end_lon": null, "dam_end_lat": null, "dam_height_m": null, "dam_length_m": null, "concrete_volume_m3": null }, "geometry": { "type": "LineString", "coordinates": [ [ 22.284202891549125, 44.647349310981809 ], [ 22.316388888888891, 44.651388888888889 ] ] } },
{ "type": "Feature", "properties": { "type": "lake-new", "rank": 4, "lake_id": 1355556, "lake_elevation_m": 943.0, "new_site_elevation_m": 1047.4, "new_site_water_level_m": 1054.8, "head_m": 111.8, "distance_m": 1791.0, "direction": "higher", "volume_million_m3": 0.665, "basin_volume_million_m3": 1.582, "empirical_volume_million_m3": 6.711, "lake_volume_million_m3": 1.33, "limited_by_existing_lake": true, "surface_area_km2": 0.3469, "storage_mwh": 172.3, "estimated_mw": 13.3, "score": 13.251, "lh_ratio": 16.01, "lh_rank": 5, "implied_flow_m3_s": 14.2, "flow_limited": false, "basin_bounded": true, "wall_fraction": null, "unrealistic_dam_length_m": null, "flat_fraction": null, "site_lake_id": null, "dam_start_lon": null, "dam_start_lat": null, "dam_end_lon": null, "dam_end_lat": null, "dam_height_m": null, "dam_length_m": null, "concrete_volume_m3": null }, "geometry": { "type": "LineString", "coordinates": [ [ 25.887181075178347, 46.126424289279413 ], [ 25.906111111111112, 46.135555555555555 ] ] } },
{ "type": "Feature", "properties": { "type": "lake-new", "rank": 5, "lake_id": 1353609, "lake_elevation_m": 211.6, "new_site_elevation_m": 484.6, "new_site_water_level_m": 496.9, "head_m": 285.4, "distance_m": 2829.0, "direction": "higher", "volume_million_m3": 0.2, "basin_volume_million_m3": 0.2, "empirical_volume_million_m3": 0.778, "lake_volume_million_m3": 0.86, "limited_by_existing_lake": false, "surface_area_km2": 0.0355, "storage_mwh": 132.1, "estimated_mw": 10.2, "score": 10.1619, "lh_ratio": 9.91, "lh_rank": 3, "implied_flow_m3_s": 4.3, "flow_limited": false, "basin_bounded": true, "wall_fraction": null, "unrealistic_dam_length_m": null, "flat_fraction": null, "site_lake_id": null, "dam_start_lon": null, "dam_start_lat": null, "dam_end_lon": null, "dam_end_lat": null, "dam_height_m": null, "dam_length_m": null, "concrete_volume_m3": null }, "geometry": { "type": "LineString", "coordinates": [ [ 27.238237573922298, 46.555291341145789 ], [ 27.269166666666667, 46.56861111111111 ] ] } }
]
}
