{
"type": "FeatureCollection",
"name": "candidates_natural",
"crs": { "type": "name", "properties": { "name": "urn:ogc:def:crs:OGC:1.3:CRS84" } },
"features": [
{ "type": "Feature", "properties": { "type": "lake-new", "rank": 1, "lake_id": 1357337, "lake_elevation_m": 649.5, "new_site_elevation_m": 841.7, "head_m": 192.2, "distance_m": 1813.3, "direction": "higher", "volume_million_m3": 6.75, "basin_volume_million_m3": 6.75, "empirical_volume_million_m3": 5.303, "lake_volume_million_m3": 17.5, "limited_by_existing_lake": false, "surface_area_km2": 0.2704, "storage_mwh": 3004.5, "estimated_mw": 231.1, "score": 231.1122, "implied_flow_m3_s": 144.2, "flow_limited": false, "basin_bounded": true, "wall_fraction": null, "dam_start_lon": 23.905051, "dam_start_lat": 45.724335, "dam_end_lon": 23.906036, "dam_end_lat": 45.725995, "dam_height_m": 59.6, "dam_length_m": 200.0, "concrete_volume_m3": 266775.0 }, "geometry": { "type": "LineString", "coordinates": [ [ 23.920447483056421, 45.712633056640925 ], [ 23.905543604077348, 45.725164747062934 ] ] } },
{ "type": "Feature", "properties": { "type": "lake-new", "rank": 2, "lake_id": 170943, "lake_elevation_m": 259.5, "new_site_elevation_m": 365.4, "head_m": 105.9, "distance_m": 1971.5, "direction": "higher", "volume_million_m3": 6.452, "basin_volume_million_m3": 6.452, "empirical_volume_million_m3": 5.597, "lake_volume_million_m3": 11.2, "limited_by_existing_lake": false, "surface_area_km2": 0.2863, "storage_mwh": 1582.0, "estimated_mw": 121.7, "score": 121.6923, "implied_flow_m3_s": 137.9, "flow_limited": false, "basin_bounded": true, "wall_fraction": null, "dam_start_lon": 24.393007, "dam_start_lat": 45.217599, "dam_end_lon": 24.392031, "dam_end_lat": 45.219258, "dam_height_m": 59.9, "dam_length_m": 200.0, "concrete_volume_m3": 269035.0 }, "geometry": { "type": "LineString", "coordinates": [ [ 24.371037140330849, 45.209230143229405 ], [ 24.392518827835904, 45.218428500318076 ] ] } },
{ "type": "Feature", "properties": { "type": "lake-new", "rank": 3, "lake_id": 1356686, "lake_elevation_m": 329.5, "new_site_elevation_m": 179.5, "head_m": 150.0, "distance_m": 1892.8, "direction": "lower", "volume_million_m3": 1.59, "basin_volume_million_m3": 28.042, "empirical_volume_million_m3": 14.617, "lake_volume_million_m3": 1.59, "limited_by_existing_lake": true, "surface_area_km2": 0.7899, "storage_mwh": 552.6, "estimated_mw": 42.5, "score": 42.5077, "implied_flow_m3_s": 34.0, "flow_limited": false, "basin_bounded": false, "wall_fraction": null, "dam_start_lon": null, "dam_start_lat": null, "dam_end_lon": null, "dam_end_lat": null, "dam_height_m": null, "dam_length_m": null, "concrete_volume_m3": null }, "geometry": { "type": "LineString", "coordinates": [ [ 22.856062525140157, 45.898563232422191 ], [ 22.872999864458073, 45.910817145066417 ] ] } },
{ "type": "Feature", "properties": { "type": "lake-new", "rank": 4, "lake_id": 1355556, "lake_elevation_m": 943.0, "new_site_elevation_m": 1048.8, "head_m": 105.9, "distance_m": 1834.2, "direction": "higher", "volume_million_m3": 1.33, "basin_volume_million_m3": 27.507, "empirical_volume_million_m3": 12.779, "lake_volume_million_m3": 1.33, "limited_by_existing_lake": true, "surface_area_km2": 0.6852, "storage_mwh": 326.1, "estimated_mw": 25.1, "score": 25.0866, "implied_flow_m3_s": 28.4, "flow_limited": false, "basin_bounded": true, "wall_fraction": null, "dam_start_lon": 25.90863, "dam_start_lat": 46.131376, "dam_end_lon": 25.910463, "dam_end_lat": 46.132647, "dam_height_m": 59.3, "dam_length_m": 200.0, "concrete_volume_m3": 263575.0 }, "geometry": { "type": "LineString", "coordinates": [ [ 25.887181075178347, 46.126424289279413 ], [ 25.909546070817992, 46.132011535256972 ] ] } },
{ "type": "Feature", "properties": { "type": "lake-new", "rank": 5, "lake_id": 1359758, "lake_elevation_m": 471.5, "new_site_elevation_m": 592.2, "head_m": 120.7, "distance_m": 1466.9, "direction": "higher", "volume_million_m3": 0.84, "basin_volume_million_m3": 8.066, "empirical_volume_million_m3": 5.717, "lake_volume_million_m3": 0.84, "limited_by_existing_lake": true, "surface_area_km2": 0.2928, "storage_mwh": 234.9, "estimated_mw": 18.1, "score": 18.0685, "implied_flow_m3_s": 17.9, "flow_limited": false, "basin_bounded": true, "wall_fraction": null, "dam_start_lon": 22.827558, "dam_start_lat": 45.13525, "dam_end_lon": 22.826584, "dam_end_lat": 45.13691, "dam_height_m": 60.0, "dam_length_m": 200.0, "concrete_volume_m3": 269837.0 }, "geometry": { "type": "LineString", "coordinates": [ [ 22.810546884619779, 45.129937337239852 ], [ 22.827071144185716, 45.136080138772968 ] ] } }
]
}
