{
"type": "FeatureCollection",
"name": "candidates_plateau",
"crs": { "type": "name", "properties": { "name": "urn:ogc:def:crs:OGC:1.3:CRS84" } },
"features": [
{ "type": "Feature", "properties": { "type": "lake-new", "rank": 1, "lake_id": 1360316, "lake_elevation_m": 231.0, "new_site_elevation_m": 994.2, "new_site_water_level_m": 1034.2, "head_m": 803.2, "distance_m": 2884.2, "direction": "higher", "volume_million_m3": 7.9, "basin_volume_million_m3": 11.452, "empirical_volume_million_m3": 5.597, "lake_volume_million_m3": 15.8, "limited_by_existing_lake": true, "surface_area_km2": 0.2863, "storage_mwh": 14698.2, "estimated_mw": 1130.6, "score": 1130.6284, "lh_ratio": 3.59, "lh_rank": 2, "implied_flow_m3_s": 168.8, "flow_limited": false, "basin_bounded": true, "wall_fraction": null, "unrealistic_dam_length_m": null, "flat_fraction": 1.0, "site_lake_id": null, "dam_start_lon": null, "dam_start_lat": null, "dam_end_lon": null, "dam_end_lat": null, "dam_height_m": 40.0, "dam_length_m": null, "concrete_volume_m3": null }, "geometry": { "type": "LineString", "coordinates": [ [ 22.459219129732748, 44.937792400784815 ], [ 22.495377774837532, 44.941807202956731 ] ] } },
{ "type": "Feature", "properties": { "type": "lake-new", "rank": 2, "lake_id": 169355, "lake_elevation_m": 515.0, "new_site_elevation_m": 1012.5, "new_site_water_level_m": 1052.5, "head_m": 537.5, "distance_m": 2998.9, "direction": "higher", "volume_million_m3": 11.59, "basin_volume_million_m3": 11.59, "empirical_volume_million_m3": 5.661, "lake_volume_million_m3": 74.0, "limited_by_existing_lake": false, "surface_area_km2": 0.2897, "storage_mwh": 14429.0, "estimated_mw": 1109.9, "score": 1109.9261, "lh_ratio": 5.58, "lh_rank": 7, "implied_flow_m3_s": 247.6, "flow_limited": false, "basin_bounded": true, "wall_fraction": null, "unrealistic_dam_length_m": null, "flat_fraction": 1.0, "site_lake_id": null, "dam_start_lon": null, "dam_start_lat": null, "dam_end_lon": null, "dam_end_lat": null, "dam_height_m": 40.0, "dam_length_m": null, "concrete_volume_m3": null }, "geometry": { "type": "LineString", "coordinates": [ [ 23.277492752515492, 46.72019978841189 ], [ 23.23863602304646, 46.724214590583806 ] ] } },
{ "type": "Feature", "properties": { "type": "lake-new", "rank": 3, "lake_id": 170555, "lake_elevation_m": 1247.5, "new_site_elevation_m": 1731.2, "new_site_water_level_m": 1771.2, "head_m": 523.7, "distance_m": 2584.2, "direction": "higher", "volume_million_m3": 11.834, "basin_volume_million_m3": 11.834, "empirical_volume_million_m3": 5.774, "lake_volume_million_m3": 136.0, "limited_by_existing_lake": false, "surface_area_km2": 0.2959, "storage_mwh": 14354.6, "estimated_mw": 1091.7, "score": 1091.6811, "lh_ratio": 4.93, "lh_rank": 5, "implied_flow_m3_s": 252.9, "flow_limited": true, "basin_bounded": true, "wall_fraction": null, "unrealistic_dam_length_m": null, "flat_fraction": 1.0, "site_lake_id": null, "dam_start_lon": null, "dam_start_lat": null, "dam_end_lon": null, "dam_end_lat": null, "dam_height_m": 40.0, "dam_length_m": null, "concrete_volume_m3": null }, "geometry": { "type": "LineString", "coordinates": [ [ 23.616631345069482, 45.570837402344097 ], [ 23.649528542721669, 45.56790776007157 ] ] } },
{ "type": "Feature", "properties": { "type": "lake-new", "rank": 4, "lake_id": 1357337, "lake_elevation_m": 649.5, "new_site_elevation_m": 1301.1, "new_site_water_level_m": 1341.1, "head_m": 691.6, "distance_m": 2967.9, "direction": "higher", "volume_million_m3": 8.75, "basin_volume_million_m3": 9.374, "empirical_volume_million_m3": 4.632, "lake_volume_million_m3": 17.5, "limited_by_existing_lake": true, "surface_area_km2": 0.2343, "storage_mwh": 14017.1, "estimated_mw": 1078.2, "score": 1078.2398, "lh_ratio": 4.29, "lh_rank": 4, "implied_flow_m3_s": 187.0, "flow_limited": false, "basin_bounded": true, "wall_fraction": null, "unrealistic_dam_length_m": null, "flat_fraction": 1.0, "site_lake_id": null, "dam_start_lon": null, "dam_start_lat": null, "dam_end_lon": null, "dam_end_lat": null, "dam_height_m": 40.0, "dam_length_m": null, "concrete_volume_m3": null }, "geometry": { "type": "LineString", "coordinates": [ [ 23.920447483056421, 45.712633056640925 ], [ 23.924067450799036, 45.68609230325729 ] ] } },
{ "type": "Feature", "properties": { "type": "lake-new", "rank": 5, "lake_id": 169296, "lake_elevation_m": 846.0, "new_site_elevation_m": 1277.3, "new_site_water_level_m": 1317.3, "head_m": 471.3, "distance_m": 2911.5, "direction": "higher", "volume_million_m3": 9.457, "basin_volume_million_m3": 9.457, "empirical_volume_million_m3": 4.67, "lake_volume_million_m3": 112.0, "limited_by_existing_lake": false, "surface_area_km2": 0.2364, "storage_mwh": 10323.3, "estimated_mw": 794.1, "score": 794.0968, "lh_ratio": 6.18, "lh_rank": 8, "implied_flow_m3_s": 202.1, "flow_limited": false, "basin_bounded": true, "wall_fraction": null, "unrealistic_dam_length_m": null, "flat_fraction": 1.0, "site_lake_id": null, "dam_start_lon": null, "dam_start_lat": null, "dam_end_lon": null, "dam_end_lat": null, "dam_height_m": 40.0, "dam_length_m": null, "concrete_volume_m3": null }, "geometry": { "type": "LineString", "coordinates": [ [ 22.715126314873245, 46.770064968533404 ], [ 22.679006133785766, 46.761579770705325 ] ] } },
{ "type": "Feature", "properties": { "type": "lake-new", "rank": 6, "lake_id": 1359260, "lake_elevation_m": 626.0, "new_site_elevation_m": 919.7, "new_site_water_level_m": 959.7, "head_m": 333.7, "distance_m": 2920.0, "direction": "higher", "volume_million_m3": 10.607, "basin_volume_million_m3": 10.607, "empirical_volume_million_m3": 5.206, "lake_volume_million_m3": 53.7, "limited_by_existing_lake": false, "surface_area_km2": 0.2652, "storage_mwh": 8197.7, "estimated_mw": 630.6, "score": 630.5956, "lh_ratio": 8.75, "lh_rank": 18, "implied_flow_m3_s": 226.6, "flow_limited": false, "basin_bounded": true, "wall_fraction": null, "unrealistic_dam_length_m": null, "flat_fraction": 1.0, "site_lake_id": null, "dam_start_lon": null, "dam_start_lat": null, "dam_end_lon": null, "dam_end_lat": null, "dam_height_m": 40.0, "dam_length_m": null, "concrete_volume_m3": null }, "geometry": { "type": "LineString", "coordinates": [ [ 25.730763090755566, 45.260977918836574 ], [ 25.762510152930517, 45.274714943230713 ] ] } },
{ "type": "Feature", "properties": { "type": "lake-new", "rank": 7, "lake_id": 169407, "lake_elevation_m": 987.5, "new_site_elevation_m": 1219.5, "new_site_water_level_m": 1259.5, "head_m": 272.0, "distance_m": 2747.9, "direction": "higher", "volume_million_m3": 11.998, "basin_volume_million_m3": 11.998, "empirical_volume_million_m3": 5.849, "lake_volume_million_m3": 225.0, "limited_by_existing_lake": false, "surface_area_km2": 0.2999, "storage_mwh": 7559.0, "estimated_mw": 567.0, "score": 567.0264, "lh_ratio": 10.1, "lh_rank": 21, "implied_flow_m3_s": 256.4, "flow_limited": true, "basin_bounded": true, "wall_fraction": null, "unrealistic_dam_length_m": null, "flat_fraction": 1.0, "site_lake_id": null, "dam_start_lon": null, "dam_start_lat": null, "dam_end_lon": null, "dam_end_lat": null, "dam_height_m": 40.0, "dam_length_m": null, "concrete_volume_m3": null }, "geometry": { "type": "LineString", "coordinates": [ [ 22.979874179336583, 46.652898084852836 ], [ 22.964684033076001, 46.630523998135864 ] ] } },
{ "type": "Feature", "properties": { "type": "lake-new", "rank": 8, "lake_id": 170205, "lake_elevation_m": 74.0, "new_site_elevation_m": 300.5, "new_site_water_level_m": 340.5, "head_m": 266.5, "distance_m": 1891.0, "direction": "higher", "volume_million_m3": 13.633, "basin_volume_million_m3": 13.633, "empirical_volume_million_m3": 6.6, "lake_volume_million_m3": 61.82, "limited_by_existing_lake": false, "surface_area_km2": 0.3408, "storage_mwh": 8416.3, "estimated_mw": 555.6, "score": 555.6286, "lh_ratio": 7.09, "lh_rank": 12, "implied_flow_m3_s": 291.3, "flow_limited": true, "basin_bounded": true, "wall_fraction": null, "unrealistic_dam_length_m": null, "flat_fraction": 1.0, "site_lake_id": null, "dam_start_lon": null, "dam_start_lat": null, "dam_end_lon": null, "dam_end_lat": null, "dam_height_m": 40.0, "dam_length_m": null, "concrete_volume_m3": null }, "geometry": { "type": "LineString", "coordinates": [ [ 27.232083824453497, 45.988755560980763 ], [ 27.250763875344415, 45.999714807597123 ] ] } },
{ "type": "Feature", "properties": { "type": "lake-new", "rank": 9, "lake_id": 1357845, "lake_elevation_m": 740.0, "new_site_elevation_m": 1034.7, "new_site_water_level_m": 1074.7, "head_m": 334.7, "distance_m": 2198.7, "direction": "higher", "volume_million_m3": 8.567, "basin_volume_million_m3": 8.567, "empirical_volume_million_m3": 4.253, "lake_volume_million_m3": 18.3, "limited_by_existing_lake": false, "surface_area_km2": 0.2142, "storage_mwh": 6641.4, "estimated_mw": 510.9, "score": 510.8755, "lh_ratio": 6.57, "lh_rank": 9, "implied_flow_m3_s": 183.1, "flow_limited": false, "basin_bounded": true, "wall_fraction": null, "unrealistic_dam_length_m": null, "flat_fraction": 1.0, "site_lake_id": null, "dam_start_lon": null, "dam_start_lat": null, "dam_end_lon": null, "dam_end_lat": null, "dam_height_m": 40.0, "dam_length_m": null, "concrete_volume_m3": null }, "geometry": { "type": "LineString", "coordinates": [ [ 25.770497975715777, 45.576668836805425 ], [ 25.788112864895147, 45.561239194532895 ] ] } },
{ "type": "Feature", "properties": { "type": "lake-new", "rank": 10, "lake_id": 1358492, "lake_elevation_m": 614.5, "new_site_elevation_m": 1380.3, "new_site_water_level_m": 1420.3, "head_m": 805.8, "distance_m": 2727.0, "direction": "higher", "volume_million_m3": 3.114, "basin_volume_million_m3": 3.114, "empirical_volume_million_m3": 1.633, "lake_volume_million_m3": 96.0, "limited_by_existing_lake": false, "surface_area_km2": 0.0778, "storage_mwh": 5811.7, "estimated_mw": 447.1, "score": 447.056, "lh_ratio": 3.38, "lh_rank": 1, "implied_flow_m3_s": 66.5, "flow_limited": false, "basin_bounded": true, "wall_fraction": null, "unrealistic_dam_length_m": null, "flat_fraction": 1.0, "site_lake_id": null, "dam_start_lon": null, "dam_start_lat": null, "dam_end_lon": null, "dam_end_lat": null, "dam_height_m": 40.0, "dam_length_m": null, "concrete_volume_m3": null }, "geometry": { "type": "LineString", "coordinates": [ [ 22.486689868068066, 45.423194444444704 ], [ 22.47247909117127, 45.400820357727731 ] ] } },
{ "type": "Feature", "properties": { "type": "lake-new", "rank": 11, "lake_id": 1354000, "lake_elevation_m": 616.3, "new_site_elevation_m": 785.3, "new_site_water_level_m": 825.3, "head_m": 209.0, "distance_m": 1096.4, "direction": "higher", "volume_million_m3": 20.757, "basin_volume_million_m3": 20.757, "empirical_volume_million_m3": 9.824, "lake_volume_million_m3": 44.0, "limited_by_existing_lake": false, "surface_area_km2": 0.5189, "storage_mwh": 10048.0, "estimated_mw": 435.7, "score": 435.6712, "lh_ratio": 5.25, "lh_rank": 6, "implied_flow_m3_s": 443.5, "flow_limited": true, "basin_bounded": true, "wall_fraction": null, "unrealistic_dam_length_m": null, "flat_fraction": 1.0, "site_lake_id": null, "dam_start_lon": null, "dam_start_lat": null, "dam_end_lon": null, "dam_end_lat": null, "dam_height_m": 40.0, "dam_length_m": null, "concrete_volume_m3": null }, "geometry": { "type": "LineString", "coordinates": [ [ 25.410773299384079, 46.472111545138858 ], [ 25.424897845721212, 46.470570791755222 ] ] } },
{ "type": "Feature", "properties": { "type": "lake-new", "rank": 12, "lake_id": 171167, "lake_elevation_m": 298.0, "new_site_elevation_m": 452.2, "new_site_water_level_m": 492.2, "head_m": 194.2, "distance_m": 2635.1, "direction": "higher", "volume_million_m3": 11.807, "basin_volume_million_m3": 11.807, "empirical_volume_million_m3": 5.761, "lake_volume_million_m3": 54.9, "limited_by_existing_lake": false, "surface_area_km2": 0.2952, "storage_mwh": 5311.5, "estimated_mw": 404.9, "score": 404.8927, "lh_ratio": 13.57, "lh_rank": 34, "implied_flow_m3_s": 252.3, "flow_limited": true, "basin_bounded": true, "wall_fraction": null, "unrealistic_dam_length_m": null, "flat_fraction": 1.0, "site_lake_id": null, "dam_start_lon": null, "dam_start_lat": null, "dam_end_lon": null, "dam_end_lat": null, "dam_height_m": 40.0, "dam_length_m": null, "concrete_volume_m3": null }, "geometry": { "type": "LineString", "coordinates": [ [ 24.806100556663807, 44.927262963189889 ], [ 24.839489333864954, 44.928499987584033 ] ] } },
{ "type": "Feature", "properties": { "type": "lake-new", "rank": 13, "lake_id": 1358935, "lake_elevation_m": 593.0, "new_site_elevation_m": 755.7, "new_site_water_level_m": 795.7, "head_m": 202.7, "distance_m": 1726.2, "direction": "higher", "volume_million_m3": 11.157, "basin_volume_million_m3": 11.157, "empirical_volume_million_m3": 5.461, "lake_volume_million_m3": 60.0, "limited_by_existing_lake": false, "surface_area_km2": 0.2789, "storage_mwh": 5238.1, "estimated_mw": 402.9, "score": 402.929, "lh_ratio": 8.52, "lh_rank": 16, "implied_flow_m3_s": 238.4, "flow_limited": false, "basin_bounded": true, "wall_fraction": null, "unrealistic_dam_length_m": null, "flat_fraction": 1.0, "site_lake_id": null, "dam_start_lon": null, "dam_start_lat": null, "dam_end_lon": null, "dam_end_lat": null, "dam_height_m": 40.0, "dam_length_m": null, "concrete_volume_m3": null }, "geometry": { "type": "LineString", "coordinates": [ [ 25.987001706307645, 45.337031521267193 ], [ 25.974246082956729, 45.324379656772443 ] ] } },
{ "type": "Feature", "properties": { "type": "lake-new", "rank": 14, "lake_id": 170453, "lake_elevation_m": 295.0, "new_site_elevation_m": 566.3, "new_site_water_level_m": 606.3, "head_m": 311.3, "distance_m": 2686.4, "direction": "higher", "volume_million_m3": 7.16, "basin_volume_million_m3": 7.16, "empirical_volume_million_m3": 3.59, "lake_volume_million_m3": 43.0, "limited_by_existing_lake": false, "surface_area_km2": 0.179, "storage_mwh": 5162.5, "estimated_mw": 397.1, "score": 397.1187, "lh_ratio": 8.63, "lh_rank": 17, "implied_flow_m3_s": 153.0, "flow_limited": false, "basin_bounded": true, "wall_fraction": null, "unrealistic_dam_length_m": null, "flat_fraction": 1.0, "site_lake_id": null, "dam_start_lon": null, "dam_start_lat": null, "dam_end_lon": null, "dam_end_lat": null, "dam_height_m": 40.0, "dam_length_m": null, "concrete_volume_m3": null }, "geometry": { "type": "LineString", "coordinates": [ [ 22.860359631779524, 45.690597195095847 ], [ 22.833441280476222, 45.705723108378876 ] ] } },
{ "type": "Feature", "properties": { "type": "lake-new", "rank": 15, "lake_id": 170408, "lake_elevation_m": 191.0, "new_site_elevation_m": 349.5, "new_site_water_level_m": 389.5, "head_m": 198.5, "distance_m": 2965.2, "direction": "higher", "volume_million_m3": 11.208, "basin_volume_million_m3": 11.208, "empirical_volume_million_m3": 5.484, "lake_volume_million_m3": 34.8, "limited_by_existing_lake": false, "surface_area_km2": 0.2802, "storage_mwh": 5153.5, "estimated_mw": 396.4, "score": 396.4251, "lh_ratio": 14.94, "lh_rank": 35, "implied_flow_m3_s": 239.5, "flow_limited": false, "basin_bounded": true, "wall_fraction": null, "unrealistic_dam_length_m": null, "flat_fraction": 1.0, "site_lake_id": null, "dam_start_lon": null, "dam_start_lat": null, "dam_end_lon": null, "dam_end_lat": null, "dam_height_m": 40.0, "dam_length_m": null, "concrete_volume_m3": null }, "geometry": { "type": "LineString", "coordinates": [ [ 22.148138730737536, 45.757704942491614 ], [ 22.13089004725769, 45.733941966885752 ] ] } },
{ "type": "Feature", "properties": { "type": "lake-new", "rank": 16, "lake_id": 14108, "lake_elevation_m": 107.0, "new_site_elevation_m": 251.7, "new_site_water_level_m": 291.7, "head_m": 184.7, "distance_m": 2158.9, "direction": "higher", "volume_million_m3": 19.179, "basin_volume_million_m3": 19.179, "empirical_volume_million_m3": 9.116, "lake_volume_million_m3": 120.0, "limited_by_existing_lake": false, "surface_area_km2": 0.4795, "storage_mwh": 8203.1, "estimated_mw": 384.9, "score": 384.9472, "lh_ratio": 11.69, "lh_rank": 30, "implied_flow_m3_s": 409.8, "flow_limited": true, "basin_bounded": true, "wall_fraction": null, "unrealistic_dam_length_m": null, "flat_fraction": 1.0, "site_lake_id": null, "dam_start_lon": null, "dam_start_lat": null, "dam_end_lon": null, "dam_end_lat": null, "dam_height_m": 40.0, "dam_length_m": null, "concrete_volume_m3": null }, "geometry": { "type": "LineString", "coordinates": [ [ 27.134820158112685, 46.240139295789817 ], [ 27.160243673791932, 46.248320764628403 ] ] } },
{ "type": "Feature", "properties": { "type": "lake-new", "rank": 17, "lake_id": 169796, "lake_elevation_m": 95.5, "new_site_elevation_m": 237.4, "new_site_water_level_m": 277.4, "head_m": 181.9, "distance_m": 1630.9, "direction": "higher", "volume_million_m3": 11.605, "basin_volume_million_m3": 25.181, "empirical_volume_million_m3": 11.794, "lake_volume_million_m3": 23.21, "limited_by_existing_lake": true, "surface_area_km2": 0.6295, "storage_mwh": 4890.8, "estimated_mw": 376.2, "score": 376.2177, "lh_ratio": 8.96, "lh_rank": 20, "implied_flow_m3_s": 248.0, "flow_limited": false, "basin_bounded": false, "wall_fraction": null, "unrealistic_dam_length_m": null, "flat_fraction": 1.0, "site_lake_id": null, "dam_start_lon": null, "dam_start_lat": null, "dam_end_lon": null, "dam_end_lat": null, "dam_height_m": 40.0, "dam_length_m": null, "concrete_volume_m3": null }, "geometry": { "type": "LineString", "coordinates": [ [ 27.562686845633472, 46.303690728081534 ], [ 27.583892459246339, 46.303538863586787 ] ] } },
{ "type": "Feature", "properties": { "type": "lake-new", "rank": 18, "lake_id": 168687, "lake_elevation_m": 269.0, "new_site_elevation_m": 407.8, "new_site_water_level_m": 447.8, "head_m": 178.8, "distance_m": 2976.9, "direction": "higher", "volume_million_m3": 12.5, "basin_volume_million_m3": 19.017, "empirical_volume_million_m3": 9.043, "lake_volume_million_m3": 25.0, "limited_by_existing_lake": true, "surface_area_km2": 0.4754, "storage_mwh": 5175.4, "estimated_mw": 372.6, "score": 372.6268, "lh_ratio": 16.65, "lh_rank": 38, "implied_flow_m3_s": 267.1, "flow_limited": true, "basin_bounded": true, "wall_fraction": null, "unrealistic_dam_length_m": null, "flat_fraction": 1.0, "site_lake_id": null, "dam_start_lon": null, "dam_start_lat": null, "dam_end_lon": null, "dam_end_lat": null, "dam_height_m": 40.0, "dam_length_m": null, "concrete_volume_m3": null }, "geometry": { "type": "LineString", "coordinates": [ [ 26.357965949147879, 47.7859356011285 ], [ 26.319592413606529, 47.778839292189311 ] ] } },
{ "type": "Feature", "properties": { "type": "lake-new", "rank": 19, "lake_id": 169243, "lake_elevation_m": 131.0, "new_site_elevation_m": 285.7, "new_site_water_level_m": 325.7, "head_m": 194.7, "distance_m": 2026.9, "direction": "higher", "volume_million_m3": 10.55, "basin_volume_million_m3": 13.179, "empirical_volume_million_m3": 6.392, "lake_volume_million_m3": 21.1, "limited_by_existing_lake": true, "surface_area_km2": 0.3295, "storage_mwh": 4757.6, "estimated_mw": 366.0, "score": 365.9704, "lh_ratio": 10.41, "lh_rank": 23, "implied_flow_m3_s": 225.4, "flow_limited": false, "basin_bounded": true, "wall_fraction": null, "unrealistic_dam_length_m": null, "flat_fraction": 1.0, "site_lake_id": null, "dam_start_lon": null, "dam_start_lat": null, "dam_end_lon": null, "dam_end_lat": null, "dam_height_m": 40.0, "dam_length_m": null, "concrete_volume_m3": null }, "geometry": { "type": "LineString", "coordinates": [ [ 27.484254516494932, 46.870215115017288 ], [ 27.463328973947139, 46.858952139411429 ] ] } },
{ "type": "Feature", "properties": { "type": "lake-new", "rank": 20, "lake_id": 1293, "lake_elevation_m": 67.0, "new_site_elevation_m": 623.6, "new_site_water_level_m": 663.6, "head_m": 596.6, "distance_m": 2547.7, "direction": "higher", "volume_million_m3": 3.432, "basin_volume_million_m3": 3.432, "empirical_volume_million_m3": 1.79, "lake_volume_million_m3": 2550.0, "limited_by_existing_lake": false, "surface_area_km2": 0.0858, "storage_mwh": 4742.4, "estimated_mw": 364.8, "score": 364.8019, "lh_ratio": 4.27, "lh_rank": 3, "implied_flow_m3_s": 73.3, "flow_limited": false, "basin_bounded": true, "wall_fraction": null, "unrealistic_dam_length_m": null, "flat_fraction": 1.0, "site_lake_id": null, "dam_start_lon": null, "dam_start_lat": null, "dam_end_lon": null, "dam_end_lat": null, "dam_height_m": 40.0, "dam_length_m": null, "concrete_volume_m3": null }, "geometry": { "type": "LineString", "coordinates": [ [ 22.026217294536458, 44.591320870058439 ], [ 21.994578387965976, 44.595335672230355 ] ] } },
{ "type": "Feature", "properties": { "type": "lake-new", "rank": 21, "lake_id": 169192, "lake_elevation_m": 156.5, "new_site_elevation_m": 377.3, "new_site_water_level_m": 417.3, "head_m": 260.8, "distance_m": 2990.4, "direction": "higher", "volume_million_m3": 7.65, "basin_volume_million_m3": 7.65, "empirical_volume_million_m3": 3.821, "lake_volume_million_m3": 25.0, "limited_by_existing_lake": false, "surface_area_km2": 0.1912, "storage_mwh": 4621.5, "estimated_mw": 355.5, "score": 355.501, "lh_ratio": 11.46, "lh_rank": 26, "implied_flow_m3_s": 163.5, "flow_limited": false, "basin_bounded": true, "wall_fraction": null, "unrealistic_dam_length_m": null, "flat_fraction": 1.0, "site_lake_id": null, "dam_start_lon": null, "dam_start_lat": null, "dam_end_lon": null, "dam_end_lat": null, "dam_height_m": 40.0, "dam_length_m": null, "concrete_volume_m3": null }, "geometry": { "type": "LineString", "coordinates": [ [ 27.338642590277182, 46.952480197482657 ], [ 27.375981754333786, 46.943994999654578 ] ] } },
{ "type": "Feature", "properties": { "type": "lake-new", "rank": 22, "lake_id": 171124, "lake_elevation_m": 334.0, "new_site_elevation_m": 492.0, "new_site_water_level_m": 532.0, "head_m": 198.0, "distance_m": 2985.1, "direction": "higher", "volume_million_m3": 10.035, "basin_volume_million_m3": 10.035, "empirical_volume_million_m3": 4.94, "lake_volume_million_m3": 54.8, "limited_by_existing_lake": false, "surface_area_km2": 0.2509, "storage_mwh": 4601.3, "estimated_mw": 353.9, "score": 353.9495, "lh_ratio": 15.08, "lh_rank": 36, "implied_flow_m3_s": 214.4, "flow_limited": false, "basin_bounded": true, "wall_fraction": null, "unrealistic_dam_length_m": null, "flat_fraction": 1.0, "site_lake_id": null, "dam_start_lon": null, "dam_start_lat": null, "dam_end_lon": null, "dam_end_lat": null, "dam_height_m": 40.0, "dam_length_m": null, "concrete_volume_m3": null }, "geometry": { "type": "LineString", "coordinates": [ [ 24.727774213189385, 44.993719337252401 ], [ 24.704168549770493, 44.972734139424318 ] ] } },
{ "type": "Feature", "properties": { "type": "lake-new", "rank": 23, "lake_id": 168728, "lake_elevation_m": 310.0, "new_site_elevation_m": 443.7, "new_site_water_level_m": 483.7, "head_m": 173.7, "distance_m": 1535.4, "direction": "higher", "volume_million_m3": 11.4, "basin_volume_million_m3": 16.679, "empirical_volume_million_m3": 7.988, "lake_volume_million_m3": 22.8, "limited_by_existing_lake": true, "surface_area_km2": 0.417, "storage_mwh": 4586.5, "estimated_mw": 352.8, "score": 352.8104, "lh_ratio": 8.84, "lh_rank": 19, "implied_flow_m3_s": 243.6, "flow_limited": false, "basin_bounded": true, "wall_fraction": null, "unrealistic_dam_length_m": null, "flat_fraction": 1.0, "site_lake_id": null, "dam_start_lon": null, "dam_start_lat": null, "dam_end_lon": null, "dam_end_lat": null, "dam_height_m": 40.0, "dam_length_m": null, "concrete_volume_m3": null }, "geometry": { "type": "LineString", "coordinates": [ [ 26.230915444020958, 47.703992513020921 ], [ 26.212057855936141, 47.709396204081727 ] ] } },
{ "type": "Feature", "properties": { "type": "lake-new", "rank": 24, "lake_id": 169444, "lake_elevation_m": 177.5, "new_site_elevation_m": 361.1, "new_site_water_level_m": 401.1, "head_m": 223.6, "distance_m": 2963.9, "direction": "higher", "volume_million_m3": 8.585, "basin_volume_million_m3": 11.684, "empirical_volume_million_m3": 5.705, "lake_volume_million_m3": 17.17, "limited_by_existing_lake": true, "surface_area_km2": 0.2921, "storage_mwh": 4446.7, "estimated_mw": 342.1, "score": 342.0536, "lh_ratio": 13.25, "lh_rank": 33, "implied_flow_m3_s": 183.4, "flow_limited": false, "basin_bounded": true, "wall_fraction": null, "unrealistic_dam_length_m": null, "flat_fraction": 1.0, "site_lake_id": null, "dam_start_lon": null, "dam_start_lat": null, "dam_end_lon": null, "dam_end_lat": null, "dam_height_m": 40.0, "dam_length_m": null, "concrete_volume_m3": null }, "geometry": { "type": "LineString", "coordinates": [ [ 26.868752401706189, 46.645428331163117 ], [ 26.832735066610518, 46.635554244446148 ] ] } },
{ "type": "Feature", "properties": { "type": "lake-new", "rank": 25, "lake_id": 14305, "lake_elevation_m": 8.5, "new_site_elevation_m": 129.8, "new_site_water_level_m": 169.8, "head_m": 161.3, "distance_m": 2987.9, "direction": "higher", "volume_million_m3": 14.9, "basin_volume_million_m3": 14.9, "empirical_volume_million_m3": 7.18, "lake_volume_million_m3": 265.25, "limited_by_existing_lake": false, "surface_area_km2": 0.3725, "storage_mwh": 5568.7, "estimated_mw": 336.4, "score": 336.3515, "lh_ratio": 18.52, "lh_rank": 45, "implied_flow_m3_s": 318.4, "flow_limited": true, "basin_bounded": true, "wall_fraction": null, "unrealistic_dam_length_m": null, "flat_fraction": 1.0, "site_lake_id": null, "dam_start_lon": null, "dam_start_lat": null, "dam_end_lon": null, "dam_end_lat": null, "dam_height_m": 40.0, "dam_length_m": null, "concrete_volume_m3": null }, "geometry": { "type": "LineString", "coordinates": [ [ 27.636339721271234, 44.15479471842437 ], [ 27.670297095885491, 44.14353174281851 ] ] } },
{ "type": "Feature", "properties": { "type": "lake-new", "rank": 26, "lake_id": 168631, "lake_elevation_m": 142.5, "new_site_elevation_m": 259.7, "new_site_water_level_m": 299.7, "head_m": 157.2, "distance_m": 2622.4, "direction": "higher", "volume_million_m3": 12.54, "basin_volume_million_m3": 12.54, "empirical_volume_million_m3": 6.099, "lake_volume_million_m3": 29.0, "limited_by_existing_lake": false, "surface_area_km2": 0.3135, "storage_mwh": 4565.7, "estimated_mw": 327.7, "score": 327.6715, "lh_ratio": 16.68, "lh_rank": 39, "implied_flow_m3_s": 268.0, "flow_limited": true, "basin_bounded": true, "wall_fraction": null, "unrealistic_dam_length_m": null, "flat_fraction": 1.0, "site_lake_id": null, "dam_start_lon": null, "dam_start_lat": null, "dam_end_lon": null, "dam_end_lat": null, "dam_height_m": 40.0, "dam_length_m": null, "concrete_volume_m3": null }, "geometry": { "type": "LineString", "coordinates": [ [ 23.296886892385466, 47.894373033312121 ], [ 23.300084911130195, 47.917832279928483 ] ] } },
{ "type": "Feature", "properties": { "type": "lake-new", "rank": 27, "lake_id": 170943, "lake_elevation_m": 259.5, "new_site_elevation_m": 547.3, "new_site_water_level_m": 587.3, "head_m": 327.8, "distance_m": 2759.0, "direction": "higher", "volume_million_m3": 5.6, "basin_volume_million_m3": 7.626, "empirical_volume_million_m3": 3.81, "lake_volume_million_m3": 11.2, "limited_by_existing_lake": true, "surface_area_km2": 0.1906, "storage_mwh": 4251.3, "estimated_mw": 327.0, "score": 327.0205, "lh_ratio": 8.42, "lh_rank": 15, "implied_flow_m3_s": 119.7, "flow_limited": false, "basin_bounded": true, "wall_fraction": null, "unrealistic_dam_length_m": null, "flat_fraction": 1.0, "site_lake_id": null, "dam_start_lon": null, "dam_start_lat": null, "dam_end_lon": null, "dam_end_lat": null, "dam_height_m": 40.0, "dam_length_m": null, "concrete_volume_m3": null }, "geometry": { "type": "LineString", "coordinates": [ [ 24.371037140330849, 45.209230143229405 ], [ 24.397268142074125, 45.225744945401324 ] ] } },
{ "type": "Feature", "properties": { "type": "lake-new", "rank": 28, "lake_id": 168774, "lake_elevation_m": 77.0, "new_site_elevation_m": 192.8, "new_site_water_level_m": 232.8, "head_m": 155.8, "distance_m": 1666.9, "direction": "higher", "volume_million_m3": 24.707, "basin_volume_million_m3": 24.707, "empirical_volume_million_m3": 11.584, "lake_volume_million_m3": 51.76, "limited_by_existing_lake": false, "surface_area_km2": 0.6177, "storage_mwh": 8916.9, "estimated_mw": 324.8, "score": 324.8151, "lh_ratio": 10.7, "lh_rank": 24, "implied_flow_m3_s": 527.9, "flow_limited": true, "basin_bounded": false, "wall_fraction": null, "unrealistic_dam_length_m": null, "flat_fraction": 1.0, "site_lake_id": null, "dam_start_lon": null, "dam_start_lat": null, "dam_end_lon": null, "dam_end_lat": null, "dam_height_m": 40.0, "dam_length_m": null, "concrete_volume_m3": null }, "geometry": { "type": "LineString", "coordinates": [ [ 26.889180658073496, 47.654802110460054 ], [ 26.874532507441668, 47.643539134854194 ] ] } },
{ "type": "Feature", "properties": { "type": "lake-new", "rank": 29, "lake_id": 169050, "lake_elevation_m": 239.0, "new_site_elevation_m": 351.0, "new_site_water_level_m": 391.0, "head_m": 152.0, "distance_m": 2914.4, "direction": "higher", "volume_million_m3": 12.244, "basin_volume_million_m3": 12.244, "empirical_volume_million_m3": 5.963, "lake_volume_million_m3": 50.2, "limited_by_existing_lake": false, "surface_area_km2": 0.3061, "storage_mwh": 4311.7, "estimated_mw": 316.9, "score": 316.9305, "lh_ratio": 19.17, "lh_rank": 46, "implied_flow_m3_s": 261.6, "flow_limited": true, "basin_bounded": true, "wall_fraction": null, "unrealistic_dam_length_m": null, "flat_fraction": 1.0, "site_lake_id": null, "dam_start_lon": null, "dam_start_lat": null, "dam_end_lon": null, "dam_end_lat": null, "dam_height_m": 40.0, "dam_length_m": null, "concrete_volume_m3": null }, "geometry": { "type": "LineString", "coordinates": [ [ 22.925831299928017, 47.18089355468797 ], [ 22.896311654118598, 47.164075023526557 ] ] } },
{ "type": "Feature", "properties": { "type": "lake-new", "rank": 30, "lake_id": 14090, "lake_elevation_m": 127.0, "new_site_elevation_m": 237.4, "new_site_water_level_m": 277.4, "head_m": 150.4, "distance_m": 2758.1, "direction": "higher", "volume_million_m3": 11.638, "basin_volume_million_m3": 11.638, "empirical_volume_million_m3": 5.683, "lake_volume_million_m3": 103.7, "limited_by_existing_lake": false, "surface_area_km2": 0.291, "storage_mwh": 4055.1, "estimated_mw": 311.9, "score": 311.9298, "lh_ratio": 18.34, "lh_rank": 44, "implied_flow_m3_s": 248.7, "flow_limited": false, "basin_bounded": true, "wall_fraction": null, "unrealistic_dam_length_m": null, "flat_fraction": 1.0, "site_lake_id": null, "dam_start_lon": null, "dam_start_lat": null, "dam_end_lon": null, "dam_end_lat": null, "dam_height_m": 40.0, "dam_length_m": null, "concrete_volume_m3": null }, "geometry": { "type": "LineString", "coordinates": [ [ 27.003762185681317, 46.370270046657851 ], [ 26.969358381087424, 46.363173737718661 ] ] } },
{ "type": "Feature", "properties": { "type": "lake-new", "rank": 31, "lake_id": 14260, "lake_elevation_m": 0.0, "new_site_elevation_m": 108.9, "new_site_water_level_m": 148.9, "head_m": 148.9, "distance_m": 2983.8, "direction": "higher", "volume_million_m3": 18.797, "basin_volume_million_m3": 18.797, "empirical_volume_million_m3": 8.944, "lake_volume_million_m3": 160.43, "limited_by_existing_lake": false, "surface_area_km2": 0.4699, "storage_mwh": 6484.2, "estimated_mw": 310.5, "score": 310.4669, "lh_ratio": 20.03, "lh_rank": 48, "implied_flow_m3_s": 401.6, "flow_limited": true, "basin_bounded": true, "wall_fraction": null, "unrealistic_dam_length_m": null, "flat_fraction": 1.0, "site_lake_id": null, "dam_start_lon": null, "dam_start_lat": null, "dam_end_lon": null, "dam_end_lat": null, "dam_height_m": 40.0, "dam_length_m": null, "concrete_volume_m3": null }, "geometry": { "type": "LineString", "coordinates": [ [ 28.765698316126134, 44.915548256768091 ], [ 28.742151444030029, 44.894563058940008 ] ] } },
{ "type": "Feature", "properties": { "type": "lake-new", "rank": 32, "lake_id": 14309, "lake_elevation_m": 10.0, "new_site_elevation_m": 118.7, "new_site_water_level_m": 158.7, "head_m": 148.7, "distance_m": 2979.8, "direction": "higher", "volume_million_m3": 23.352, "basin_volume_million_m3": 23.352, "empirical_volume_million_m3": 10.982, "lake_volume_million_m3": 144.42, "limited_by_existing_lake": false, "surface_area_km2": 0.5838, "storage_mwh": 8045.8, "estimated_mw": 310.1, "score": 310.0858, "lh_ratio": 20.03, "lh_rank": 49, "implied_flow_m3_s": 499.0, "flow_limited": true, "basin_bounded": false, "wall_fraction": null, "unrealistic_dam_length_m": null, "flat_fraction": 1.0, "site_lake_id": null, "dam_start_lon": null, "dam_start_lat": null, "dam_end_lon": null, "dam_end_lat": null, "dam_height_m": 40.0, "dam_length_m": null, "concrete_volume_m3": null }, "geometry": { "type": "LineString", "coordinates": [ [ 27.442571271580483, 44.085212097167897 ], [ 27.447412085292715, 44.058671343784262 ] ] } },
{ "type": "Feature", "properties": { "type": "lake-new", "rank": 33, "lake_id": 169512, "lake_elevation_m": 97.5, "new_site_elevation_m": 206.2, "new_site_water_level_m": 246.2, "head_m": 148.7, "distance_m": 1713.8, "direction": "higher", "volume_million_m3": 15.745, "basin_volume_million_m3": 15.745, "empirical_volume_million_m3": 7.564, "lake_volume_million_m3": 40.9, "limited_by_existing_lake": false, "surface_area_km2": 0.3936, "storage_mwh": 5422.3, "estimated_mw": 309.9, "score": 309.9383, "lh_ratio": 11.53, "lh_rank": 29, "implied_flow_m3_s": 336.4, "flow_limited": true, "basin_bounded": true, "wall_fraction": null, "unrealistic_dam_length_m": null, "flat_fraction": 1.0, "site_lake_id": null, "dam_start_lon": null, "dam_start_lat": null, "dam_end_lon": null, "dam_end_lat": null, "dam_height_m": 40.0, "dam_length_m": null, "concrete_volume_m3": null }, "geometry": { "type": "LineString", "coordinates": [ [ 27.843115378280402, 46.586696234809011 ], [ 27.864090714337959, 46.592099925869817 ] ] } },
{ "type": "Feature", "properties": { "type": "lake-new", "rank": 34, "lake_id": 171099, "lake_elevation_m": 211.5, "new_site_elevation_m": 355.9, "new_site_water_level_m": 395.9, "head_m": 184.4, "distance_m": 2900.6, "direction": "higher", "volume_million_m3": 9.25, "basin_volume_million_m3": 9.57, "empirical_volume_million_m3": 4.723, "lake_volume_million_m3": 18.5, "limited_by_existing_lake": true, "surface_area_km2": 0.2392, "storage_mwh": 3950.6, "estimated_mw": 303.9, "score": 303.8933, "lh_ratio": 15.73, "lh_rank": 37, "implied_flow_m3_s": 197.6, "flow_limited": false, "basin_bounded": true, "wall_fraction": null, "unrealistic_dam_length_m": null, "flat_fraction": 1.0, "site_lake_id": null, "dam_start_lon": null, "dam_start_lat": null, "dam_end_lon": null, "dam_end_lat": null, "dam_height_m": 40.0, "dam_length_m": null, "concrete_volume_m3": null }, "geometry": { "type": "LineString", "coordinates": [ [ 24.313389419245411, 45.024254557291925 ], [ 24.339760725315976, 45.006047137241623 ] ] } },
{ "type": "Feature", "properties": { "type": "lake-new", "rank": 35, "lake_id": 169119, "lake_elevation_m": 208.0, "new_site_elevation_m": 313.5, "new_site_water_level_m": 353.5, "head_m": 145.5, "distance_m": 2992.3, "direction": "higher", "volume_million_m3": 12.325, "basin_volume_million_m3": 12.325, "empirical_volume_million_m3": 6.0, "lake_volume_million_m3": 65.4, "limited_by_existing_lake": false, "surface_area_km2": 0.3081, "storage_mwh": 4152.7, "estimated_mw": 303.2, "score": 303.2349, "lh_ratio": 20.57, "lh_rank": 50, "implied_flow_m3_s": 263.4, "flow_limited": true, "basin_bounded": true, "wall_fraction": null, "unrealistic_dam_length_m": null, "flat_fraction": 1.0, "site_lake_id": null, "dam_start_lon": null, "dam_start_lat": null, "dam_end_lon": null, "dam_end_lat": null, "dam_height_m": 40.0, "dam_length_m": null, "concrete_volume_m3": null }, "geometry": { "type": "LineString", "coordinates": [ [ 22.335303099672025, 47.055957845052603 ], [ 22.326722176386554, 47.082194869446745 ] ] } },
{ "type": "Feature", "properties": { "type": "lake-new", "rank": 36, "lake_id": 169290, "lake_elevation_m": 117.5, "new_site_elevation_m": 222.2, "new_site_water_level_m": 262.2, "head_m": 144.7, "distance_m": 1499.3, "direction": "higher", "volume_million_m3": 23.5, "basin_volume_million_m3": 25.104, "empirical_volume_million_m3": 11.759, "lake_volume_million_m3": 47.0, "limited_by_existing_lake": true, "surface_area_km2": 0.6276, "storage_mwh": 7878.8, "estimated_mw": 301.7, "score": 301.7397, "lh_ratio": 10.36, "lh_rank": 22, "implied_flow_m3_s": 502.1, "flow_limited": true, "basin_bounded": false, "wall_fraction": null, "unrealistic_dam_length_m": null, "flat_fraction": 1.0, "site_lake_id": null, "dam_start_lon": null, "dam_start_lat": null, "dam_end_lon": null, "dam_end_lat": null, "dam_height_m": 40.0, "dam_length_m": null, "concrete_volume_m3": null }, "geometry": { "type": "LineString", "coordinates": [ [ 27.794272040689332, 46.81097317165802 ], [ 27.808117953705182, 46.820543529385496 ] ] } },
{ "type": "Feature", "properties": { "type": "lake-new", "rank": 37, "lake_id": 168909, "lake_elevation_m": 52.0, "new_site_elevation_m": 152.8, "new_site_water_level_m": 192.8, "head_m": 140.8, "distance_m": 2349.6, "direction": "higher", "volume_million_m3": 19.122, "basin_volume_million_m3": 19.122, "empirical_volume_million_m3": 9.09, "lake_volume_million_m3": 41.1, "limited_by_existing_lake": false, "surface_area_km2": 0.4781, "storage_mwh": 6236.6, "estimated_mw": 293.5, "score": 293.5294, "lh_ratio": 16.69, "lh_rank": 40, "implied_flow_m3_s": 408.6, "flow_limited": true, "basin_bounded": true, "wall_fraction": null, "unrealistic_dam_length_m": null, "flat_fraction": 1.0, "site_lake_id": null, "dam_start_lon": null, "dam_start_lat": null, "dam_end_lon": null, "dam_end_lat": null, "dam_height_m": 40.0, "dam_length_m": null, "concrete_volume_m3": null }, "geometry": { "type": "LineString", "coordinates": [ [ 27.277134506497092, 47.426075303819431 ], [ 27.273794853736863, 47.405090105991349 ] ] } },
{ "type": "Feature", "properties": { "type": "lake-new", "rank": 38, "lake_id": 13974, "lake_elevation_m": 86.5, "new_site_elevation_m": 186.3, "new_site_water_level_m": 226.3, "head_m": 139.8, "distance_m": 2414.4, "direction": "higher", "volume_million_m3": 23.891, "basin_volume_million_m3": 23.891, "empirical_volume_million_m3": 11.221, "lake_volume_million_m3": 1290.0, "limited_by_existing_lake": false, "surface_area_km2": 0.5973, "storage_mwh": 7734.6, "estimated_mw": 291.4, "score": 291.374, "lh_ratio": 17.27, "lh_rank": 41, "implied_flow_m3_s": 510.5, "flow_limited": true, "basin_bounded": false, "wall_fraction": null, "unrealistic_dam_length_m": null, "flat_fraction": 1.0, "site_lake_id": null, "dam_start_lon": null, "dam_start_lat": null, "dam_end_lon": null, "dam_end_lat": null, "dam_height_m": 40.0, "dam_length_m": null, "concrete_volume_m3": null }, "geometry": { "type": "LineString", "coordinates": [ [ 27.16047442792896, 47.91680372450088 ], [ 27.140041591110652, 47.899985193339468 ] ] } },
{ "type": "Feature", "properties": { "type": "lake-new", "rank": 39, "lake_id": 169740, "lake_elevation_m": 499.0, "new_site_elevation_m": 689.0, "new_site_water_level_m": 729.0, "head_m": 230.0, "distance_m": 1783.8, "direction": "higher", "volume_million_m3": 7.104, "basin_volume_million_m3": 7.104, "empirical_volume_million_m3": 3.563, "lake_volume_million_m3": 90.0, "limited_by_existing_lake": false, "surface_area_km2": 0.1776, "storage_mwh": 3785.1, "estimated_mw": 291.2, "score": 291.1583, "lh_ratio": 7.75, "lh_rank": 14, "implied_flow_m3_s": 151.8, "flow_limited": false, "basin_bounded": true, "wall_fraction": null, "unrealistic_dam_length_m": null, "flat_fraction": 1.0, "site_lake_id": null, "dam_start_lon": null, "dam_start_lat": null, "dam_end_lon": null, "dam_end_lat": null, "dam_height_m": 40.0, "dam_length_m": null, "concrete_volume_m3": null }, "geometry": { "type": "LineString", "coordinates": [ [ 26.373273407658445, 46.329615071614569 ], [ 26.38751362673019, 46.316963207119819 ] ] } },
{ "type": "Feature", "properties": { "type": "lake-new", "rank": 40, "lake_id": 169039, "lake_elevation_m": 60.5, "new_site_elevation_m": 159.7, "new_site_water_level_m": 199.7, "head_m": 139.2, "distance_m": 1525.4, "direction": "higher", "volume_million_m3": 16.265, "basin_volume_million_m3": 16.265, "empirical_volume_million_m3": 7.8, "lake_volume_million_m3": 33.0, "limited_by_existing_lake": false, "surface_area_km2": 0.4066, "storage_mwh": 5244.8, "estimated_mw": 290.2, "score": 290.2127, "lh_ratio": 10.96, "lh_rank": 25, "implied_flow_m3_s": 347.5, "flow_limited": true, "basin_bounded": true, "wall_fraction": null, "unrealistic_dam_length_m": null, "flat_fraction": 1.0, "site_lake_id": null, "dam_start_lon": null, "dam_start_lat": null, "dam_end_lon": null, "dam_end_lat": null, "dam_height_m": 40.0, "dam_length_m": null, "concrete_volume_m3": null }, "geometry": { "type": "LineString", "coordinates": [ [ 27.238464863127398, 47.209034830729223 ], [ 27.226976936430511, 47.197771855123364 ] ] } },
{ "type": "Feature", "properties": { "type": "lake-new", "rank": 41, "lake_id": 14297, "lake_elevation_m": 38.0, "new_site_elevation_m": 137.2, "new_site_water_level_m": 177.2, "head_m": 139.2, "distance_m": 1601.5, "direction": "higher", "volume_million_m3": 14.08, "basin_volume_million_m3": 14.08, "empirical_volume_million_m3": 6.805, "lake_volume_million_m3": 868.0, "limited_by_existing_lake": false, "surface_area_km2": 0.352, "storage_mwh": 4539.9, "estimated_mw": 290.2, "score": 290.1987, "lh_ratio": 11.5, "lh_rank": 27, "implied_flow_m3_s": 300.9, "flow_limited": true, "basin_bounded": true, "wall_fraction": null, "unrealistic_dam_length_m": null, "flat_fraction": 1.0, "site_lake_id": null, "dam_start_lon": null, "dam_start_lat": null, "dam_end_lon": null, "dam_end_lat": null, "dam_height_m": 40.0, "dam_length_m": null, "concrete_volume_m3": null }, "geometry": { "type": "LineString", "coordinates": [ [ 22.548776276220373, 44.486204322498935 ], [ 22.568603617239535, 44.488830235781961 ] ] } },
{ "type": "Feature", "properties": { "type": "lake-new", "rank": 42, "lake_id": 1352457, "lake_elevation_m": 553.5, "new_site_elevation_m": 887.6, "new_site_water_level_m": 927.6, "head_m": 374.1, "distance_m": 2613.5, "direction": "higher", "volume_million_m3": 4.34, "basin_volume_million_m3": 5.21, "empirical_volume_million_m3": 2.657, "lake_volume_million_m3": 8.68, "limited_by_existing_lake": true, "surface_area_km2": 0.1303, "storage_mwh": 3760.7, "estimated_mw": 289.3, "score": 289.2834, "lh_ratio": 6.99, "lh_rank": 11, "implied_flow_m3_s": 92.7, "flow_limited": false, "basin_bounded": true, "wall_fraction": null, "unrealistic_dam_length_m": null, "flat_fraction": 1.0, "site_lake_id": null, "dam_start_lon": null, "dam_start_lat": null, "dam_end_lon": null, "dam_end_lat": null, "dam_height_m": 40.0, "dam_length_m": null, "concrete_volume_m3": null }, "geometry": { "type": "LineString", "coordinates": [ [ 22.571578063977327, 46.801467827691397 ], [ 22.543765195255649, 46.815204852085536 ] ] } },
{ "type": "Feature", "properties": { "type": "lake-new", "rank": 43, "lake_id": 168613, "lake_elevation_m": 296.0, "new_site_elevation_m": 386.5, "new_site_water_level_m": 426.5, "head_m": 130.5, "distance_m": 2309.6, "direction": "higher", "volume_million_m3": 25.159, "basin_volume_million_m3": 25.159, "empirical_volume_million_m3": 11.784, "lake_volume_million_m3": 55.8, "limited_by_existing_lake": false, "surface_area_km2": 0.629, "storage_mwh": 7603.0, "estimated_mw": 272.0, "score": 271.9756, "lh_ratio": 17.7, "lh_rank": 43, "implied_flow_m3_s": 537.6, "flow_limited": true, "basin_bounded": false, "wall_fraction": null, "unrealistic_dam_length_m": null, "flat_fraction": 1.0, "site_lake_id": null, "dam_start_lon": null, "dam_start_lat": null, "dam_end_lon": null, "dam_end_lat": null, "dam_height_m": 40.0, "dam_length_m": null, "concrete_volume_m3": null }, "geometry": { "type": "LineString", "coordinates": [ [ 26.131826013515166, 47.94390407986117 ], [ 26.105813734080929, 47.93264110425531 ] ] } },
{ "type": "Feature", "properties": { "type": "lake-new", "rank": 44, "lake_id": 171006, "lake_elevation_m": 245.5, "new_site_elevation_m": 426.5, "new_site_water_level_m": 466.5, "head_m": 221.0, "distance_m": 2716.2, "direction": "higher", "volume_million_m3": 6.852, "basin_volume_million_m3": 6.852, "empirical_volume_million_m3": 3.443, "lake_volume_million_m3": 19.0, "limited_by_existing_lake": false, "surface_area_km2": 0.1713, "storage_mwh": 3507.0, "estimated_mw": 269.8, "score": 269.7691, "lh_ratio": 12.29, "lh_rank": 32, "implied_flow_m3_s": 146.4, "flow_limited": false, "basin_bounded": true, "wall_fraction": null, "unrealistic_dam_length_m": null, "flat_fraction": 1.0, "site_lake_id": null, "dam_start_lon": null, "dam_start_lat": null, "dam_end_lon": null, "dam_end_lat": null, "dam_height_m": 40.0, "dam_length_m": null, "concrete_volume_m3": null }, "geometry": { "type": "LineString", "coordinates": [ [ 24.389620737511429, 45.14405327691 ], [ 24.413123553604006, 45.161956967970809 ] ] } },
{ "type": "Feature", "properties": { "type": "lake-new", "rank": 45, "lake_id": 169061, "lake_elevation_m": 795.5, "new_site_elevation_m": 994.2, "new_site_water_level_m": 1034.2, "head_m": 238.7, "distance_m": 2874.6, "direction": "higher", "volume_million_m3": 6.292, "basin_volume_million_m3": 6.292, "empirical_volume_million_m3": 3.177, "lake_volume_million_m3": 90.0, "limited_by_existing_lake": false, "surface_area_km2": 0.1573, "storage_mwh": 3478.3, "estimated_mw": 267.6, "score": 267.5627, "lh_ratio": 12.04, "lh_rank": 31, "implied_flow_m3_s": 134.5, "flow_limited": false, "basin_bounded": true, "wall_fraction": null, "unrealistic_dam_length_m": null, "flat_fraction": 1.0, "site_lake_id": null, "dam_start_lon": null, "dam_start_lat": null, "dam_end_lon": null, "dam_end_lat": null, "dam_height_m": 40.0, "dam_length_m": null, "concrete_volume_m3": null }, "geometry": { "type": "LineString", "coordinates": [ [ 24.900796014882737, 47.169932050889003 ], [ 24.92961897733457, 47.15311351972759 ] ] } },
{ "type": "Feature", "properties": { "type": "lake-new", "rank": 46, "lake_id": 169809, "lake_elevation_m": 77.5, "new_site_elevation_m": 221.0, "new_site_water_level_m": 261.0, "head_m": 183.5, "distance_m": 2111.6, "direction": "higher", "volume_million_m3": 8.16, "basin_volume_million_m3": 16.335, "empirical_volume_million_m3": 7.832, "lake_volume_million_m3": 16.32, "limited_by_existing_lake": true, "surface_area_km2": 0.4084, "storage_mwh": 3468.5, "estimated_mw": 266.8, "score": 266.8082, "lh_ratio": 11.51, "lh_rank": 28, "implied_flow_m3_s": 174.4, "flow_limited": false, "basin_bounded": true, "wall_fraction": null, "unrealistic_dam_length_m": null, "flat_fraction": 1.0, "site_lake_id": null, "dam_start_lon": null, "dam_start_lat": null, "dam_end_lon": null, "dam_end_lat": null, "dam_height_m": 40.0, "dam_length_m": null, "concrete_volume_m3": null }, "geometry": { "type": "LineString", "coordinates": [ [ 27.680849796985306, 46.283949924045004 ], [ 27.653460233143516, 46.285186948439147 ] ] } },
{ "type": "Feature", "properties": { "type": "lake-new", "rank": 47, "lake_id": 1352799, "lake_elevation_m": 440.5, "new_site_elevation_m": 810.4, "new_site_water_level_m": 850.4, "head_m": 409.9, "distance_m": 2981.8, "direction": "higher", "volume_million_m3": 3.65, "basin_volume_million_m3": 5.636, "empirical_volume_million_m3": 2.862, "lake_volume_million_m3": 7.3, "limited_by_existing_lake": true, "surface_area_km2": 0.1409, "storage_mwh": 3465.7, "estimated_mw": 266.6, "score": 266.5937, "lh_ratio": 7.27, "lh_rank": 13, "implied_flow_m3_s": 78.0, "flow_limited": false, "basin_bounded": true, "wall_fraction": null, "unrealistic_dam_length_m": null, "flat_fraction": 1.0, "site_lake_id": null, "dam_start_lon": null, "dam_start_lat": null, "dam_end_lon": null, "dam_end_lat": null, "dam_height_m": 40.0, "dam_length_m": null, "concrete_volume_m3": null }, "geometry": { "type": "LineString", "coordinates": [ [ 23.330492073159768, 46.732716878255587 ], [ 23.312458338017933, 46.708953902649725 ] ] } },
{ "type": "Feature", "properties": { "type": "lake-new", "rank": 48, "lake_id": 14276, "lake_elevation_m": 138.0, "new_site_elevation_m": 224.6, "new_site_water_level_m": 264.6, "head_m": 126.6, "distance_m": 2519.2, "direction": "higher", "volume_million_m3": 18.954, "basin_volume_million_m3": 18.954, "empirical_volume_million_m3": 9.015, "lake_volume_million_m3": 225.0, "limited_by_existing_lake": false, "surface_area_km2": 0.4738, "storage_mwh": 5559.7, "estimated_mw": 264.0, "score": 263.9964, "lh_ratio": 19.89, "lh_rank": 47, "implied_flow_m3_s": 405.0, "flow_limited": true, "basin_bounded": true, "wall_fraction": null, "unrealistic_dam_length_m": null, "flat_fraction": 1.0, "site_lake_id": null, "dam_start_lon": null, "dam_start_lat": null, "dam_end_lon": null, "dam_end_lat": null, "dam_height_m": 40.0, "dam_length_m": null, "concrete_volume_m3": null }, "geometry": { "type": "LineString", "coordinates": [ [ 24.320938424046826, 44.60114666704763 ], [ 24.350403375788208, 44.59266146921955 ] ] } },
{ "type": "Feature", "properties": { "type": "lake-new", "rank": 49, "lake_id": 171162, "lake_elevation_m": 196.0, "new_site_elevation_m": 277.5, "new_site_water_level_m": 317.5, "head_m": 121.5, "distance_m": 2112.1, "direction": "higher", "volume_million_m3": 21.355, "basin_volume_million_m3": 21.355, "empirical_volume_million_m3": 10.091, "lake_volume_million_m3": 59.7, "limited_by_existing_lake": false, "surface_area_km2": 0.5339, "storage_mwh": 6010.5, "estimated_mw": 253.3, "score": 253.3102, "lh_ratio": 17.38, "lh_rank": 42, "implied_flow_m3_s": 456.3, "flow_limited": true, "basin_bounded": true, "wall_fraction": null, "unrealistic_dam_length_m": null, "flat_fraction": 1.0, "site_lake_id": null, "dam_start_lon": null, "dam_start_lat": null, "dam_end_lon": null, "dam_end_lat": null, "dam_height_m": 40.0, "dam_length_m": null, "concrete_volume_m3": null }, "geometry": { "type": "LineString", "coordinates": [ [ 24.268221332690331, 44.9557336815638 ], [ 24.29325537887728, 44.962526261513496 ] ] } },
{ "type": "Feature", "properties": { "type": "lake-new", "rank": 50, "lake_id": 170318, "lake_elevation_m": 422.0, "new_site_elevation_m": 602.5, "new_site_water_level_m": 642.5, "head_m": 220.5, "distance_m": 1530.0, "direction": "higher", "volume_million_m3": 6.15, "basin_volume_million_m3": 8.446, "empirical_volume_million_m3": 4.197, "lake_volume_million_m3": 12.3, "limited_by_existing_lake": true, "surface_area_km2": 0.2112, "storage_mwh": 3141.7, "estimated_mw": 241.7, "score": 241.6661, "lh_ratio": 6.94, "lh_rank": 10, "implied_flow_m3_s": 131.4, "flow_limited": false, "basin_bounded": true, "wall_fraction": null, "unrealistic_dam_length_m": null, "flat_fraction": 1.0, "site_lake_id": null, "dam_start_lon": null, "dam_start_lat": null, "dam_end_lon": null, "dam_end_lat": null, "dam_height_m": 40.0, "dam_length_m": null, "concrete_volume_m3": null }, "geometry": { "type": "LineString", "coordinates": [ [ 24.893759952791036, 45.841210801866595 ], [ 24.893112278869495, 45.854947826260734 ] ] } }
]
}
