{
"type": "FeatureCollection",
"name": "reference_projects",
"crs": { "type": "name", "properties": { "name": "urn:ogc:def:crs:OGC:1.3:CRS84" } },
"features": [
{ "type": "Feature", "properties": { "type": "reference-real", "name": "Tarnița–Lăpuștești", "status": "planned, unbuilt as of 2026", "lake_elevation_m": 521.5, "new_site_elevation_m": 1085.0, "head_m": 563.5, "distance_m": 1977.8, "volume_million_m3": 10.0, "lake_volume_million_m3": 15.0, "rated_mw": 1000, "storage_mwh_at_rated_mw": 13052.1, "implied_duration_h": 13.1, "source": "en.wikipedia.org & ro.wikipedia.org “Tarnița–Lăpuștești”, checked 2026-09-01" }, "geometry": { "type": "LineString", "coordinates": [ [ 23.278707869648212, 46.721549912777185 ], [ 23.280417307625946, 46.703821691832559 ] ] } }
]
}
